[
  { "postcode": "01000", "city": "Kangar", "state": "Perlis" },
  { "postcode": "01007", "city": "Kangar", "state": "Perlis" },
  { "postcode": "01009", "city": "Kangar", "state": "Perlis" },
  { "postcode": "01500", "city": "Kangar", "state": "Perlis" },
  { "postcode": "01502", "city": "Kangar", "state": "Perlis" },
  { "postcode": "01503", "city": "Kangar", "state": "Perlis" },
  { "postcode": "01504", "city": "Kangar", "state": "Perlis" },
  { "postcode": "01505", "city": "Kangar", "state": "Perlis" },
  { "postcode": "01506", "city": "Kangar", "state": "Perlis" },
  { "postcode": "01508", "city": "Kangar", "state": "Perlis" },
  { "postcode": "01512", "city": "Kangar", "state": "Perlis" },
  { "postcode": "01514", "city": "Kangar", "state": "Perlis" },
  { "postcode": "01516", "city": "Kangar", "state": "Perlis" },
  { "postcode": "01517", "city": "Kangar", "state": "Perlis" },
  { "postcode": "01518", "city": "Kangar", "state": "Perlis" },
  { "postcode": "01524", "city": "Kangar", "state": "Perlis" },
  { "postcode": "01529", "city": "Kangar", "state": "Perlis" },
  { "postcode": "01532", "city": "Kangar", "state": "Perlis" },
  { "postcode": "01538", "city": "Kangar", "state": "Perlis" },
  { "postcode": "01540", "city": "Kangar", "state": "Perlis" },
  { "postcode": "01546", "city": "Kangar", "state": "Perlis" },
  { "postcode": "01550", "city": "Kangar", "state": "Perlis" },
  { "postcode": "01551", "city": "Kangar", "state": "Perlis" },
  { "postcode": "01556", "city": "Kangar", "state": "Perlis" },
  { "postcode": "01560", "city": "Kangar", "state": "Perlis" },
  { "postcode": "01564", "city": "Kangar", "state": "Perlis" },
  { "postcode": "01570", "city": "Kangar", "state": "Perlis" },
  { "postcode": "01572", "city": "Kangar", "state": "Perlis" },
  { "postcode": "01576", "city": "Kangar", "state": "Perlis" },
  { "postcode": "01578", "city": "Kangar", "state": "Perlis" },
  { "postcode": "01582", "city": "Kangar", "state": "Perlis" },
  { "postcode": "01586", "city": "Kangar", "state": "Perlis" },
  { "postcode": "01590", "city": "Kangar", "state": "Perlis" },
  { "postcode": "01592", "city": "Kangar", "state": "Perlis" },
  { "postcode": "01594", "city": "Kangar", "state": "Perlis" },
  { "postcode": "01596", "city": "Kangar", "state": "Perlis" },
  { "postcode": "01598", "city": "Kangar", "state": "Perlis" },
  { "postcode": "01600", "city": "Kangar", "state": "Perlis" },
  { "postcode": "01604", "city": "Kangar", "state": "Perlis" },
  { "postcode": "01606", "city": "Kangar", "state": "Perlis" },
  { "postcode": "01608", "city": "Kangar", "state": "Perlis" },
  { "postcode": "01609", "city": "Kangar", "state": "Perlis" },
  { "postcode": "01610", "city": "Kangar", "state": "Perlis" },
  { "postcode": "01612", "city": "Kangar", "state": "Perlis" },
  { "postcode": "01614", "city": "Kangar", "state": "Perlis" },
  { "postcode": "01620", "city": "Kangar", "state": "Perlis" },
  { "postcode": "01622", "city": "Kangar", "state": "Perlis" },
  { "postcode": "01626", "city": "Kangar", "state": "Perlis" },
  { "postcode": "01628", "city": "Kangar", "state": "Perlis" },
  { "postcode": "01630", "city": "Kangar", "state": "Perlis" },
  { "postcode": "01632", "city": "Kangar", "state": "Perlis" },
  { "postcode": "01634", "city": "Kangar", "state": "Perlis" },
  { "postcode": "01644", "city": "Kangar", "state": "Perlis" },
  { "postcode": "01646", "city": "Kangar", "state": "Perlis" },
  { "postcode": "01648", "city": "Kangar", "state": "Perlis" },
  { "postcode": "01660", "city": "Kangar", "state": "Perlis" },
  { "postcode": "01664", "city": "Kangar", "state": "Perlis" },
  { "postcode": "01670", "city": "Kangar", "state": "Perlis" },
  { "postcode": "01672", "city": "Kangar", "state": "Perlis" },
  { "postcode": "01673", "city": "Kangar", "state": "Perlis" },
  { "postcode": "01674", "city": "Kangar", "state": "Perlis" },
  { "postcode": "01676", "city": "Kangar", "state": "Perlis" },
  { "postcode": "01680", "city": "Kangar", "state": "Perlis" },
  { "postcode": "01694", "city": "Kangar", "state": "Perlis" }
]
