[
  { "postcode": "06000", "city": "Jitra", "state": "Kedah" },
  { "postcode": "06007", "city": "Jitra", "state": "Kedah" },
  { "postcode": "06009", "city": "Jitra", "state": "Kedah" },
  { "postcode": "06010", "city": "Changloon", "state": "Kedah" },
  { "postcode": "06050", "city": "Bukit Kayu Hitam", "state": "Kedah" },
  { "postcode": "06100", "city": "Kodiang", "state": "Kedah" },
  { "postcode": "06150", "city": "Ayer Hitam", "state": "Kedah" },
  { "postcode": "06200", "city": "Kepala Batas", "state": "Kedah" },
  { "postcode": "06207", "city": "Kepala Batas", "state": "Kedah" },
  { "postcode": "06209", "city": "Kepala Batas", "state": "Kedah" },
  { "postcode": "06250", "city": "Alor Setar", "state": "Kedah" },
  { "postcode": "06300", "city": "Kuala Nerang", "state": "Kedah" },
  { "postcode": "06350", "city": "Pokok Sena", "state": "Kedah" },
  { "postcode": "06400", "city": "Pokok Sena", "state": "Kedah" },
  { "postcode": "06500", "city": "Langgar", "state": "Kedah" },
  { "postcode": "06507", "city": "Langgar", "state": "Kedah" },
  { "postcode": "06509", "city": "Alor Setar", "state": "Kedah" },
  { "postcode": "06550", "city": "Alor Setar", "state": "Kedah" },
  { "postcode": "06570", "city": "Alor Setar", "state": "Kedah" },
  { "postcode": "06600", "city": "Kuala Kedah", "state": "Kedah" },
  { "postcode": "06650", "city": "Simpang Empat", "state": "Kedah" },
  { "postcode": "06660", "city": "Alor Setar", "state": "Kedah" },
  { "postcode": "06680", "city": "Simpang Empat", "state": "Kedah" },
  { "postcode": "06700", "city": "Pendang", "state": "Kedah" },
  { "postcode": "06707", "city": "Pendang", "state": "Kedah" },
  { "postcode": "06709", "city": "Pendang", "state": "Kedah" },
  { "postcode": "06710", "city": "Pendang", "state": "Kedah" },
  { "postcode": "06720", "city": "Pendang", "state": "Kedah" },
  { "postcode": "06750", "city": "Pendang", "state": "Kedah" },
  { "postcode": "06760", "city": "Pendang", "state": "Kedah" },
  { "postcode": "06800", "city": "Kota Sarang Semut", "state": "Kedah" },
  { "postcode": "06900", "city": "Yan", "state": "Kedah" },
  { "postcode": "06910", "city": "Yan", "state": "Kedah" }
]
