[
  { "postcode": "08000", "city": "Sungai Petani", "state": "Kedah" },
  { "postcode": "08007", "city": "Sungai Petani", "state": "Kedah" },
  { "postcode": "08009", "city": "Sungai Petani", "state": "Kedah" },
  { "postcode": "08010", "city": "Sungai Petani", "state": "Kedah" },
  { "postcode": "08100", "city": "Bedong", "state": "Kedah" },
  { "postcode": "08110", "city": "Bedong", "state": "Kedah" },
  { "postcode": "08200", "city": "Sik", "state": "Kedah" },
  { "postcode": "08210", "city": "Sik", "state": "Kedah" },
  { "postcode": "08300", "city": "Gurun", "state": "Kedah" },
  { "postcode": "08320", "city": "Jeniang", "state": "Kedah" },
  { "postcode": "08330", "city": "Gurun", "state": "Kedah" },
  { "postcode": "08340", "city": "Sik", "state": "Kedah" },
  { "postcode": "08400", "city": "Merbok", "state": "Kedah" },
  { "postcode": "08407", "city": "Merbok", "state": "Kedah" },
  { "postcode": "08409", "city": "Merbok", "state": "Kedah" },
  { "postcode": "08500", "city": "Kota Kuala Muda", "state": "Kedah" },
  { "postcode": "08507", "city": "Kota Kuala Muda", "state": "Kedah" },
  { "postcode": "08509", "city": "Kota Kuala Muda", "state": "Kedah" },
  { "postcode": "08600", "city": "Sungai Petani", "state": "Kedah" },
  { "postcode": "08700", "city": "Jeniang", "state": "Kedah" },
  { "postcode": "08800", "city": "Gurun", "state": "Kedah" }
]
