[
  { "postcode": "09000", "city": "Kulim", "state": "Kedah" },
  { "postcode": "09007", "city": "Kulim", "state": "Kedah" },
  { "postcode": "09009", "city": "Kulim", "state": "Kedah" },
  { "postcode": "09010", "city": "Kulim", "state": "Kedah" },
  { "postcode": "09020", "city": "Kulim", "state": "Kedah" },
  { "postcode": "09100", "city": "Baling", "state": "Kedah" },
  { "postcode": "09110", "city": "Kuala Pegang", "state": "Kedah" },
  { "postcode": "09200", "city": "Kupang", "state": "Kedah" },
  { "postcode": "09300", "city": "Kuala Ketil", "state": "Kedah" },
  { "postcode": "09310", "city": "Kuala Ketil", "state": "Kedah" },
  { "postcode": "09400", "city": "Padang Serai", "state": "Kedah" },
  { "postcode": "09410", "city": "Padang Serai", "state": "Kedah" },
  { "postcode": "09600", "city": "Lunas", "state": "Kedah" },
  { "postcode": "09700", "city": "Karangan", "state": "Kedah" },
  { "postcode": "09800", "city": "Serdang", "state": "Kedah" },
  { "postcode": "09810", "city": "Serdang", "state": "Kedah" }
]
