[
  { "postcode": "10000", "city": "Pulau Pinang", "state": "Pulau Pinang" },
  { "postcode": "10050", "city": "Pulau Pinang", "state": "Pulau Pinang" },
  { "postcode": "10100", "city": "Pulau Pinang", "state": "Pulau Pinang" },
  { "postcode": "10150", "city": "Pulau Pinang", "state": "Pulau Pinang" },
  { "postcode": "10200", "city": "Pulau Pinang", "state": "Pulau Pinang" },
  { "postcode": "10250", "city": "Pulau Pinang", "state": "Pulau Pinang" },
  { "postcode": "10300", "city": "Pulau Pinang", "state": "Pulau Pinang" },
  { "postcode": "10350", "city": "Pulau Pinang", "state": "Pulau Pinang" },
  { "postcode": "10400", "city": "Pulau Pinang", "state": "Pulau Pinang" },
  { "postcode": "10450", "city": "Pulau Pinang", "state": "Pulau Pinang" },
  { "postcode": "10460", "city": "Pulau Pinang", "state": "Pulau Pinang" },
  { "postcode": "10470", "city": "Pulau Pinang", "state": "Pulau Pinang" },
  { "postcode": "10500", "city": "Pulau Pinang", "state": "Pulau Pinang" },
  { "postcode": "10502", "city": "Pulau Pinang", "state": "Pulau Pinang" },
  { "postcode": "10503", "city": "Pulau Pinang", "state": "Pulau Pinang" },
  { "postcode": "10504", "city": "Pulau Pinang", "state": "Pulau Pinang" },
  { "postcode": "10505", "city": "Pulau Pinang", "state": "Pulau Pinang" },
  { "postcode": "10506", "city": "Pulau Pinang", "state": "Pulau Pinang" },
  { "postcode": "10508", "city": "Pulau Pinang", "state": "Pulau Pinang" },
  { "postcode": "10512", "city": "Pulau Pinang", "state": "Pulau Pinang" },
  { "postcode": "10514", "city": "Pulau Pinang", "state": "Pulau Pinang" },
  { "postcode": "10516", "city": "Pulau Pinang", "state": "Pulau Pinang" },
  { "postcode": "10518", "city": "Pulau Pinang", "state": "Pulau Pinang" },
  { "postcode": "10524", "city": "Pulau Pinang", "state": "Pulau Pinang" },
  { "postcode": "10534", "city": "Pulau Pinang", "state": "Pulau Pinang" },
  { "postcode": "10538", "city": "Pulau Pinang", "state": "Pulau Pinang" },
  { "postcode": "10540", "city": "Pulau Pinang", "state": "Pulau Pinang" },
  { "postcode": "10542", "city": "Pulau Pinang", "state": "Pulau Pinang" },
  { "postcode": "10546", "city": "Pulau Pinang", "state": "Pulau Pinang" },
  { "postcode": "10550", "city": "Pulau Pinang", "state": "Pulau Pinang" },
  { "postcode": "10551", "city": "Pulau Pinang", "state": "Pulau Pinang" },
  { "postcode": "10552", "city": "Pulau Pinang", "state": "Pulau Pinang" },
  { "postcode": "10558", "city": "Pulau Pinang", "state": "Pulau Pinang" },
  { "postcode": "10560", "city": "Pulau Pinang", "state": "Pulau Pinang" },
  { "postcode": "10564", "city": "Pulau Pinang", "state": "Pulau Pinang" },
  { "postcode": "10566", "city": "Pulau Pinang", "state": "Pulau Pinang" },
  { "postcode": "10570", "city": "Pulau Pinang", "state": "Pulau Pinang" },
  { "postcode": "10576", "city": "Pulau Pinang", "state": "Pulau Pinang" },
  { "postcode": "10578", "city": "Pulau Pinang", "state": "Pulau Pinang" },
  { "postcode": "10582", "city": "Pulau Pinang", "state": "Pulau Pinang" },
  { "postcode": "10590", "city": "Pulau Pinang", "state": "Pulau Pinang" },
  { "postcode": "10592", "city": "Pulau Pinang", "state": "Pulau Pinang" },
  { "postcode": "10593", "city": "Pulau Pinang", "state": "Pulau Pinang" },
  { "postcode": "10594", "city": "Pulau Pinang", "state": "Pulau Pinang" },
  { "postcode": "10596", "city": "Pulau Pinang", "state": "Pulau Pinang" },
  { "postcode": "10600", "city": "Pulau Pinang", "state": "Pulau Pinang" },
  { "postcode": "10604", "city": "Pulau Pinang", "state": "Pulau Pinang" },
  { "postcode": "10609", "city": "Pulau Pinang", "state": "Pulau Pinang" },
  { "postcode": "10610", "city": "Pulau Pinang", "state": "Pulau Pinang" },
  { "postcode": "10612", "city": "Pulau Pinang", "state": "Pulau Pinang" },
  { "postcode": "10620", "city": "Pulau Pinang", "state": "Pulau Pinang" },
  { "postcode": "10622", "city": "Pulau Pinang", "state": "Pulau Pinang" },
  { "postcode": "10626", "city": "Pulau Pinang", "state": "Pulau Pinang" },
  { "postcode": "10628", "city": "Pulau Pinang", "state": "Pulau Pinang" },
  { "postcode": "10634", "city": "Pulau Pinang", "state": "Pulau Pinang" },
  { "postcode": "10646", "city": "Pulau Pinang", "state": "Pulau Pinang" },
  { "postcode": "10648", "city": "Pulau Pinang", "state": "Pulau Pinang" },
  { "postcode": "10660", "city": "Pulau Pinang", "state": "Pulau Pinang" },
  { "postcode": "10661", "city": "Pulau Pinang", "state": "Pulau Pinang" },
  { "postcode": "10662", "city": "Pulau Pinang", "state": "Pulau Pinang" },
  { "postcode": "10670", "city": "Pulau Pinang", "state": "Pulau Pinang" },
  { "postcode": "10672", "city": "Pulau Pinang", "state": "Pulau Pinang" },
  { "postcode": "10673", "city": "Pulau Pinang", "state": "Pulau Pinang" },
  { "postcode": "10674", "city": "Pulau Pinang", "state": "Pulau Pinang" },
  { "postcode": "10676", "city": "Pulau Pinang", "state": "Pulau Pinang" },
  { "postcode": "10690", "city": "Pulau Pinang", "state": "Pulau Pinang" },
  { "postcode": "10710", "city": "Pulau Pinang", "state": "Pulau Pinang" },
  { "postcode": "10720", "city": "Pulau Pinang", "state": "Pulau Pinang" },
  { "postcode": "10730", "city": "Pulau Pinang", "state": "Pulau Pinang" },
  { "postcode": "10740", "city": "Pulau Pinang", "state": "Pulau Pinang" },
  { "postcode": "10750", "city": "Pulau Pinang", "state": "Pulau Pinang" },
  { "postcode": "10760", "city": "Pulau Pinang", "state": "Pulau Pinang" },
  { "postcode": "10770", "city": "Pulau Pinang", "state": "Pulau Pinang" },
  { "postcode": "10780", "city": "Pulau Pinang", "state": "Pulau Pinang" },
  { "postcode": "10790", "city": "Pulau Pinang", "state": "Pulau Pinang" },
  { "postcode": "10800", "city": "Pulau Pinang", "state": "Pulau Pinang" },
  { "postcode": "10810", "city": "Pulau Pinang", "state": "Pulau Pinang" },
  { "postcode": "10820", "city": "Pulau Pinang", "state": "Pulau Pinang" },
  { "postcode": "10830", "city": "Pulau Pinang", "state": "Pulau Pinang" },
  { "postcode": "10840", "city": "Pulau Pinang", "state": "Pulau Pinang" },
  { "postcode": "10850", "city": "Pulau Pinang", "state": "Pulau Pinang" },
  { "postcode": "10910", "city": "Pulau Pinang", "state": "Pulau Pinang" },
  { "postcode": "10920", "city": "Pulau Pinang", "state": "Pulau Pinang" },
  { "postcode": "10990", "city": "Pulau Pinang", "state": "Pulau Pinang" }
]
