[
  { "postcode": "11000", "city": "Balik Pulau", "state": "Pulau Pinang" },
  { "postcode": "11010", "city": "Balik Pulau", "state": "Pulau Pinang" },
  { "postcode": "11020", "city": "Balik Pulau", "state": "Pulau Pinang" },
  { "postcode": "11050", "city": "Pulau Pinang", "state": "Pulau Pinang" },
  { "postcode": "11060", "city": "Pulau Pinang", "state": "Pulau Pinang" },
  { "postcode": "11100", "city": "Batu Ferringhi", "state": "Pulau Pinang" },
  { "postcode": "11200", "city": "Tanjong Bungah", "state": "Pulau Pinang" },
  { "postcode": "11300", "city": "Penang Hill", "state": "Pulau Pinang" },
  { "postcode": "11400", "city": "Pulau Pinang", "state": "Pulau Pinang" },
  { "postcode": "11409", "city": "Pulau Pinang", "state": "Pulau Pinang" },
  { "postcode": "11500", "city": "Ayer Itam", "state": "Pulau Pinang" },
  { "postcode": "11600", "city": "Jelutong", "state": "Pulau Pinang" },
  { "postcode": "11609", "city": "Jelutong", "state": "Pulau Pinang" },
  { "postcode": "11700", "city": "Gelugor", "state": "Pulau Pinang" },
  { "postcode": "11800", "city": "Usm Pulau Pinang", "state": "Pulau Pinang" },
  { "postcode": "11900", "city": "Bayan Lepas", "state": "Pulau Pinang" },
  { "postcode": "11910", "city": "Bayan Lepas", "state": "Pulau Pinang" },
  { "postcode": "11920", "city": "Bayan Lepas", "state": "Pulau Pinang" },
  { "postcode": "11950", "city": "Bayan Lepas", "state": "Pulau Pinang" },
  { "postcode": "11960", "city": "Batu Maung", "state": "Pulau Pinang" }
]
