[
  { "postcode": "14000", "city": "Bukit Mertajam", "state": "Pulau Pinang" },
  { "postcode": "14007", "city": "Bukit Mertajam", "state": "Pulau Pinang" },
  { "postcode": "14009", "city": "Bukit Mertajam", "state": "Pulau Pinang" },
  { "postcode": "14020", "city": "Bukit Mertajam", "state": "Pulau Pinang" },
  { "postcode": "14100", "city": "Simpang Ampat", "state": "Pulau Pinang" },
  { "postcode": "14101", "city": "Simpang Ampat", "state": "Pulau Pinang" },
  { "postcode": "14110", "city": "Simpang Ampat", "state": "Pulau Pinang" },
  { "postcode": "14120", "city": "Simpang Ampat", "state": "Pulau Pinang" },
  { "postcode": "14200", "city": "Sungai Jawi", "state": "Pulau Pinang" },
  { "postcode": "14290", "city": "Bandar Bahru", "state": "Kedah" },
  { "postcode": "14300", "city": "Nibong Tebal", "state": "Pulau Pinang" },
  { "postcode": "14310", "city": "Nibong Tebal", "state": "Pulau Pinang" },
  { "postcode": "14320", "city": "Nibong Tebal", "state": "Pulau Pinang" },
  { "postcode": "14390", "city": "Bandar Bahru", "state": "Kedah" },
  { "postcode": "14400", "city": "Kubang Semang", "state": "Pulau Pinang" }
]
