[
  { "postcode": "15000", "city": "Kota Bharu", "state": "Kelantan" },
  { "postcode": "15050", "city": "Kota Bharu", "state": "Kelantan" },
  { "postcode": "15100", "city": "Kota Bharu", "state": "Kelantan" },
  { "postcode": "15150", "city": "Kota Bharu", "state": "Kelantan" },
  { "postcode": "15159", "city": "Kota Bharu", "state": "Kelantan" },
  { "postcode": "15160", "city": "Kota Bharu", "state": "Kelantan" },
  { "postcode": "15200", "city": "Kota Bharu", "state": "Kelantan" },
  { "postcode": "15300", "city": "Kota Bharu", "state": "Kelantan" },
  { "postcode": "15350", "city": "Kota Bharu", "state": "Kelantan" },
  { "postcode": "15400", "city": "Kota Bharu", "state": "Kelantan" },
  { "postcode": "15500", "city": "Kota Bharu", "state": "Kelantan" },
  { "postcode": "15502", "city": "Kota Bharu", "state": "Kelantan" },
  { "postcode": "15503", "city": "Kota Bharu", "state": "Kelantan" },
  { "postcode": "15504", "city": "Kota Bharu", "state": "Kelantan" },
  { "postcode": "15505", "city": "Kota Bharu", "state": "Kelantan" },
  { "postcode": "15506", "city": "Kota Bharu", "state": "Kelantan" },
  { "postcode": "15508", "city": "Kota Bharu", "state": "Kelantan" },
  { "postcode": "15512", "city": "Kota Bharu", "state": "Kelantan" },
  { "postcode": "15514", "city": "Kota Bharu", "state": "Kelantan" },
  { "postcode": "15516", "city": "Kota Bharu", "state": "Kelantan" },
  { "postcode": "15517", "city": "Kota Bharu", "state": "Kelantan" },
  { "postcode": "15518", "city": "Kota Bharu", "state": "Kelantan" },
  { "postcode": "15519", "city": "Kota Bharu", "state": "Kelantan" },
  { "postcode": "15520", "city": "Kota Bharu", "state": "Kelantan" },
  { "postcode": "15524", "city": "Kota Bharu", "state": "Kelantan" },
  { "postcode": "15529", "city": "Kota Bharu", "state": "Kelantan" },
  { "postcode": "15532", "city": "Kota Bharu", "state": "Kelantan" },
  { "postcode": "15534", "city": "Kota Bharu", "state": "Kelantan" },
  { "postcode": "15536", "city": "Kota Bharu", "state": "Kelantan" },
  { "postcode": "15538", "city": "Kota Bharu", "state": "Kelantan" },
  { "postcode": "15540", "city": "Kota Bharu", "state": "Kelantan" },
  { "postcode": "15546", "city": "Kota Bharu", "state": "Kelantan" },
  { "postcode": "15548", "city": "Kota Bharu", "state": "Kelantan" },
  { "postcode": "15550", "city": "Kota Bharu", "state": "Kelantan" },
  { "postcode": "15551", "city": "Kota Bharu", "state": "Kelantan" },
  { "postcode": "15556", "city": "Kota Bharu", "state": "Kelantan" },
  { "postcode": "15558", "city": "Kota Bharu", "state": "Kelantan" },
  { "postcode": "15560", "city": "Kota Bharu", "state": "Kelantan" },
  { "postcode": "15564", "city": "Kota Bharu", "state": "Kelantan" },
  { "postcode": "15570", "city": "Kota Bharu", "state": "Kelantan" },
  { "postcode": "15572", "city": "Kota Bharu", "state": "Kelantan" },
  { "postcode": "15576", "city": "Kota Bharu", "state": "Kelantan" },
  { "postcode": "15578", "city": "Kota Bharu", "state": "Kelantan" },
  { "postcode": "15582", "city": "Kota Bharu", "state": "Kelantan" },
  { "postcode": "15586", "city": "Kota Bharu", "state": "Kelantan" },
  { "postcode": "15590", "city": "Kota Bharu", "state": "Kelantan" },
  { "postcode": "15592", "city": "Kota Bharu", "state": "Kelantan" },
  { "postcode": "15594", "city": "Kota Bharu", "state": "Kelantan" },
  { "postcode": "15596", "city": "Kota Bharu", "state": "Kelantan" },
  { "postcode": "15600", "city": "Kota Bharu", "state": "Kelantan" },
  { "postcode": "15604", "city": "Kota Bharu", "state": "Kelantan" },
  { "postcode": "15606", "city": "Kota Bharu", "state": "Kelantan" },
  { "postcode": "15608", "city": "Kota Bharu", "state": "Kelantan" },
  { "postcode": "15609", "city": "Kota Bharu", "state": "Kelantan" },
  { "postcode": "15610", "city": "Kota Bharu", "state": "Kelantan" },
  { "postcode": "15612", "city": "Kota Bharu", "state": "Kelantan" },
  { "postcode": "15614", "city": "Kota Bharu", "state": "Kelantan" },
  { "postcode": "15616", "city": "Kota Bharu", "state": "Kelantan" },
  { "postcode": "15620", "city": "Kota Bharu", "state": "Kelantan" },
  { "postcode": "15622", "city": "Kota Bharu", "state": "Kelantan" },
  { "postcode": "15623", "city": "Kota Bharu", "state": "Kelantan" },
  { "postcode": "15624", "city": "Kota Bharu", "state": "Kelantan" },
  { "postcode": "15626", "city": "Kota Bharu", "state": "Kelantan" },
  { "postcode": "15628", "city": "Kota Bharu", "state": "Kelantan" },
  { "postcode": "15630", "city": "Kota Bharu", "state": "Kelantan" },
  { "postcode": "15632", "city": "Kota Bharu", "state": "Kelantan" },
  { "postcode": "15634", "city": "Kota Bharu", "state": "Kelantan" },
  { "postcode": "15644", "city": "Kota Bharu", "state": "Kelantan" },
  { "postcode": "15646", "city": "Kota Bharu", "state": "Kelantan" },
  { "postcode": "15648", "city": "Kota Bharu", "state": "Kelantan" },
  { "postcode": "15658", "city": "Kota Bharu", "state": "Kelantan" },
  { "postcode": "15660", "city": "Kota Bharu", "state": "Kelantan" },
  { "postcode": "15661", "city": "Kota Bharu", "state": "Kelantan" },
  { "postcode": "15662", "city": "Kota Bharu", "state": "Kelantan" },
  { "postcode": "15664", "city": "Kota Bharu", "state": "Kelantan" },
  { "postcode": "15670", "city": "Kota Bharu", "state": "Kelantan" },
  { "postcode": "15672", "city": "Kota Bharu", "state": "Kelantan" },
  { "postcode": "15673", "city": "Kota Bharu", "state": "Kelantan" },
  { "postcode": "15674", "city": "Kota Bharu", "state": "Kelantan" },
  { "postcode": "15676", "city": "Kota Bharu", "state": "Kelantan" },
  { "postcode": "15680", "city": "Kota Bharu", "state": "Kelantan" },
  { "postcode": "15690", "city": "Kota Bharu", "state": "Kelantan" },
  { "postcode": "15700", "city": "Kota Bharu", "state": "Kelantan" },
  { "postcode": "15710", "city": "Kota Bharu", "state": "Kelantan" },
  { "postcode": "15720", "city": "Kota Bharu", "state": "Kelantan" },
  { "postcode": "15730", "city": "Kota Bharu", "state": "Kelantan" },
  { "postcode": "15740", "city": "Kota Bharu", "state": "Kelantan" },
  { "postcode": "15988", "city": "Kota Bharu", "state": "Kelantan" },
  { "postcode": "15990", "city": "Kota Bharu", "state": "Kelantan" }
]
