[
  { "postcode": "16010", "city": "Kota Bharu", "state": "Kelantan" },
  { "postcode": "16020", "city": "Bachok", "state": "Kelantan" },
  { "postcode": "16030", "city": "Bachok", "state": "Kelantan" },
  { "postcode": "16040", "city": "Wakaf Bharu", "state": "Kelantan" },
  { "postcode": "16050", "city": "Bachok", "state": "Kelantan" },
  { "postcode": "16060", "city": "Bachok", "state": "Kelantan" },
  { "postcode": "16070", "city": "Bachok", "state": "Kelantan" },
  { "postcode": "16080", "city": "Tumpat", "state": "Kelantan" },
  { "postcode": "16090", "city": "Bachok", "state": "Kelantan" },
  { "postcode": "16100", "city": "Kota Bharu", "state": "Kelantan" },
  { "postcode": "16109", "city": "Kota Bharu", "state": "Kelantan" },
  { "postcode": "16150", "city": "Kota Bharu", "state": "Kelantan" },
  { "postcode": "16200", "city": "Tumpat", "state": "Kelantan" },
  { "postcode": "16210", "city": "Tumpat", "state": "Kelantan" },
  { "postcode": "16250", "city": "Wakaf Bharu", "state": "Kelantan" },
  { "postcode": "16266", "city": "Wakaf Bharu", "state": "Kelantan" },
  { "postcode": "16300", "city": "Bachok", "state": "Kelantan" },
  { "postcode": "16310", "city": "Bachok", "state": "Kelantan" },
  { "postcode": "16320", "city": "Bachok", "state": "Kelantan" },
  { "postcode": "16350", "city": "Bachok", "state": "Kelantan" },
  { "postcode": "16370", "city": "Bachok", "state": "Kelantan" },
  { "postcode": "16390", "city": "Bachok", "state": "Kelantan" },
  { "postcode": "16400", "city": "Melor", "state": "Kelantan" },
  { "postcode": "16450", "city": "Ketereh", "state": "Kelantan" },
  { "postcode": "16500", "city": "Kem Desa Pahlawan", "state": "Kelantan" },
  { "postcode": "16600", "city": "Pulai Chondong", "state": "Kelantan" },
  { "postcode": "16700", "city": "Cherang Ruku", "state": "Kelantan" },
  { "postcode": "16800", "city": "Pasir Puteh", "state": "Kelantan" },
  { "postcode": "16810", "city": "Selising", "state": "Kelantan" }
]
