[
  { "postcode": "17000", "city": "Pasir Mas", "state": "Kelantan" },
  { "postcode": "17007", "city": "Pasir Mas", "state": "Kelantan" },
  { "postcode": "17009", "city": "Pasir Mas", "state": "Kelantan" },
  { "postcode": "17010", "city": "Pasir Mas", "state": "Kelantan" },
  { "postcode": "17020", "city": "Pasir Mas", "state": "Kelantan" },
  { "postcode": "17030", "city": "Pasir Mas", "state": "Kelantan" },
  { "postcode": "17040", "city": "Pasir Mas", "state": "Kelantan" },
  { "postcode": "17050", "city": "Pasir Mas", "state": "Kelantan" },
  { "postcode": "17060", "city": "Pasir Mas", "state": "Kelantan" },
  { "postcode": "17070", "city": "Pasir Mas", "state": "Kelantan" },
  { "postcode": "17200", "city": "Rantau Panjang", "state": "Kelantan" },
  { "postcode": "17500", "city": "Tanah Merah", "state": "Kelantan" },
  { "postcode": "17507", "city": "Tanah Merah", "state": "Kelantan" },
  { "postcode": "17509", "city": "Tanah Merah", "state": "Kelantan" },
  { "postcode": "17510", "city": "Tanah Merah", "state": "Kelantan" },
  { "postcode": "17520", "city": "Tanah Merah", "state": "Kelantan" },
  { "postcode": "17599", "city": "Tanah Merah", "state": "Kelantan" },
  { "postcode": "17600", "city": "Jeli", "state": "Kelantan" },
  { "postcode": "17610", "city": "Kuala Balah", "state": "Kelantan" },
  { "postcode": "17700", "city": "Ayer Lanas", "state": "Kelantan" }
]
