[
  { "postcode": "21000", "city": "Kuala Terengganu", "state": "Terengganu" },
  { "postcode": "21009", "city": "Kuala Terengganu", "state": "Terengganu" },
  { "postcode": "21010", "city": "Kuala Terengganu", "state": "Terengganu" },
  { "postcode": "21020", "city": "Kuala Terengganu", "state": "Terengganu" },
  { "postcode": "21030", "city": "Kuala Terengganu", "state": "Terengganu" },
  { "postcode": "21040", "city": "Kuala Terengganu", "state": "Terengganu" },
  { "postcode": "21050", "city": "Kuala Terengganu", "state": "Terengganu" },
  { "postcode": "21060", "city": "Kuala Terengganu", "state": "Terengganu" },
  { "postcode": "21070", "city": "Kuala Terengganu", "state": "Terengganu" },
  { "postcode": "21080", "city": "Kuala Terengganu", "state": "Terengganu" },
  { "postcode": "21090", "city": "Kuala Terengganu", "state": "Terengganu" },
  { "postcode": "21100", "city": "Kuala Terengganu", "state": "Terengganu" },
  { "postcode": "21109", "city": "Kuala Terengganu", "state": "Terengganu" },
  { "postcode": "21200", "city": "Kuala Terengganu", "state": "Terengganu" },
  { "postcode": "21209", "city": "Kuala Terengganu", "state": "Terengganu" },
  { "postcode": "21210", "city": "Kuala Terengganu", "state": "Terengganu" },
  { "postcode": "21220", "city": "Kuala Terengganu", "state": "Terengganu" },
  { "postcode": "21300", "city": "Kuala Terengganu", "state": "Terengganu" },
  { "postcode": "21309", "city": "Kuala Terengganu", "state": "Terengganu" },
  { "postcode": "21400", "city": "Bukit Payong", "state": "Terengganu" },
  { "postcode": "21450", "city": "Chalok", "state": "Terengganu" },
  { "postcode": "21500", "city": "Sungai Tong", "state": "Terengganu" },
  { "postcode": "21600", "city": "Marang", "state": "Terengganu" },
  { "postcode": "21610", "city": "Marang", "state": "Terengganu" },
  { "postcode": "21700", "city": "Kuala Berang", "state": "Terengganu" },
  { "postcode": "21800", "city": "Ajil", "state": "Terengganu" },
  { "postcode": "21810", "city": "Ajil", "state": "Terengganu" },
  { "postcode": "21820", "city": "Ajil", "state": "Terengganu" }
]
