[
  { "postcode": "24000", "city": "Cukai", "state": "Terengganu" },
  { "postcode": "24007", "city": "Cukai", "state": "Terengganu" },
  { "postcode": "24009", "city": "Cukai", "state": "Terengganu" },
  { "postcode": "24010", "city": "Cukai", "state": "Terengganu" },
  { "postcode": "24020", "city": "Cukai", "state": "Terengganu" },
  { "postcode": "24030", "city": "Cukai", "state": "Terengganu" },
  { "postcode": "24040", "city": "Cukai", "state": "Terengganu" },
  { "postcode": "24050", "city": "Ayer Puteh", "state": "Terengganu" },
  { "postcode": "24060", "city": "Ceneh", "state": "Terengganu" },
  { "postcode": "24100", "city": "Kijal", "state": "Terengganu" },
  { "postcode": "24107", "city": "Kijal", "state": "Terengganu" },
  { "postcode": "24109", "city": "Kijal", "state": "Terengganu" },
  { "postcode": "24200", "city": "Kemasek", "state": "Terengganu" },
  { "postcode": "24207", "city": "Kemasek", "state": "Terengganu" },
  { "postcode": "24209", "city": "Kemasek", "state": "Terengganu" },
  { "postcode": "24210", "city": "Kemasek", "state": "Terengganu" },
  { "postcode": "24220", "city": "Kemasek", "state": "Terengganu" },
  { "postcode": "24300", "city": "Kerteh", "state": "Terengganu" }
]
