[
  { "postcode": "27000", "city": "Jerantut", "state": "Pahang" },
  { "postcode": "27010", "city": "Jerantut", "state": "Pahang" },
  { "postcode": "27020", "city": "Jerantut", "state": "Pahang" },
  { "postcode": "27030", "city": "Damak", "state": "Pahang" },
  { "postcode": "27040", "city": "Jerantut", "state": "Pahang" },
  { "postcode": "27050", "city": "Jerantut", "state": "Pahang" },
  { "postcode": "27060", "city": "Jerantut", "state": "Pahang" },
  { "postcode": "27070", "city": "Jerantut", "state": "Pahang" },
  { "postcode": "27080", "city": "Bandar Pusat Jengka", "state": "Pahang" },
  { "postcode": "27090", "city": "Jerantut", "state": "Pahang" },
  { "postcode": "27100", "city": "Padang Tengku", "state": "Pahang" },
  { "postcode": "27150", "city": "Jerantut", "state": "Pahang" },
  { "postcode": "27200", "city": "Kuala Lipis", "state": "Pahang" },
  { "postcode": "27207", "city": "Kuala Lipis", "state": "Pahang" },
  { "postcode": "27209", "city": "Kuala Lipis", "state": "Pahang" },
  { "postcode": "27210", "city": "Kuala Lipis", "state": "Pahang" },
  { "postcode": "27300", "city": "Benta", "state": "Pahang" },
  { "postcode": "27310", "city": "Benta", "state": "Pahang" },
  { "postcode": "27400", "city": "Dong", "state": "Pahang" },
  { "postcode": "27500", "city": "Sungai Ruan", "state": "Pahang" },
  { "postcode": "27600", "city": "Raub", "state": "Pahang" },
  { "postcode": "27607", "city": "Raub", "state": "Pahang" },
  { "postcode": "27609", "city": "Raub", "state": "Pahang" },
  { "postcode": "27610", "city": "Raub", "state": "Pahang" },
  { "postcode": "27620", "city": "Raub", "state": "Pahang" },
  { "postcode": "27630", "city": "Raub", "state": "Pahang" },
  { "postcode": "27650", "city": "Sungai Koyan", "state": "Pahang" },
  { "postcode": "27660", "city": "Sega", "state": "Pahang" },
  { "postcode": "27670", "city": "Raub", "state": "Pahang" }
]
