[
  { "postcode": "28000", "city": "Temerloh", "state": "Pahang" },
  { "postcode": "28007", "city": "Temerloh", "state": "Pahang" },
  { "postcode": "28009", "city": "Temerloh", "state": "Pahang" },
  { "postcode": "28010", "city": "Temerloh", "state": "Pahang" },
  { "postcode": "28020", "city": "Temerloh", "state": "Pahang" },
  { "postcode": "28030", "city": "Temerloh", "state": "Pahang" },
  { "postcode": "28040", "city": "Temerloh", "state": "Pahang" },
  { "postcode": "28050", "city": "Kuala Krau", "state": "Pahang" },
  { "postcode": "28100", "city": "Chenor", "state": "Pahang" },
  { "postcode": "28200", "city": "Triang", "state": "Pahang" },
  { "postcode": "28300", "city": "Triang", "state": "Pahang" },
  { "postcode": "28310", "city": "Triang", "state": "Pahang" },
  { "postcode": "28320", "city": "Triang", "state": "Pahang" },
  { "postcode": "28330", "city": "Triang", "state": "Pahang" },
  { "postcode": "28340", "city": "Kemayan", "state": "Pahang" },
  { "postcode": "28350", "city": "Triang", "state": "Pahang" },
  { "postcode": "28380", "city": "Kemayan", "state": "Pahang" },
  { "postcode": "28400", "city": "Mentakab", "state": "Pahang" },
  { "postcode": "28407", "city": "Mentakab", "state": "Pahang" },
  { "postcode": "28409", "city": "Mentakab", "state": "Pahang" },
  { "postcode": "28500", "city": "Lanchang", "state": "Pahang" },
  { "postcode": "28600", "city": "Karak", "state": "Pahang" },
  { "postcode": "28610", "city": "Karak", "state": "Pahang" },
  { "postcode": "28620", "city": "Karak", "state": "Pahang" },
  { "postcode": "28700", "city": "Bentong", "state": "Pahang" },
  { "postcode": "28707", "city": "Bentong", "state": "Pahang" },
  { "postcode": "28709", "city": "Bentong", "state": "Pahang" },
  { "postcode": "28730", "city": "Bentong", "state": "Pahang" },
  { "postcode": "28740", "city": "Bentong", "state": "Pahang" },
  { "postcode": "28750", "city": "Bentong", "state": "Pahang" },
  { "postcode": "28800", "city": "Lurah Bilut", "state": "Pahang" }
]
