[
  { "postcode": "30000", "city": "Ipoh", "state": "Perak" },
  { "postcode": "30010", "city": "Ipoh", "state": "Perak" },
  { "postcode": "30020", "city": "Ipoh", "state": "Perak" },
  { "postcode": "30100", "city": "Ipoh", "state": "Perak" },
  { "postcode": "30200", "city": "Ipoh", "state": "Perak" },
  { "postcode": "30205", "city": "Ipoh", "state": "Perak" },
  { "postcode": "30250", "city": "Ipoh", "state": "Perak" },
  { "postcode": "30300", "city": "Ipoh", "state": "Perak" },
  { "postcode": "30350", "city": "Ipoh", "state": "Perak" },
  { "postcode": "30400", "city": "Ipoh", "state": "Perak" },
  { "postcode": "30450", "city": "Ipoh", "state": "Perak" },
  { "postcode": "30500", "city": "Ipoh", "state": "Perak" },
  { "postcode": "30502", "city": "Ipoh", "state": "Perak" },
  { "postcode": "30503", "city": "Ipoh", "state": "Perak" },
  { "postcode": "30504", "city": "Ipoh", "state": "Perak" },
  { "postcode": "30505", "city": "Ipoh", "state": "Perak" },
  { "postcode": "30506", "city": "Ipoh", "state": "Perak" },
  { "postcode": "30508", "city": "Ipoh", "state": "Perak" },
  { "postcode": "30510", "city": "Ipoh", "state": "Perak" },
  { "postcode": "30512", "city": "Ipoh", "state": "Perak" },
  { "postcode": "30516", "city": "Ipoh", "state": "Perak" },
  { "postcode": "30517", "city": "Ipoh", "state": "Perak" },
  { "postcode": "30518", "city": "Ipoh", "state": "Perak" },
  { "postcode": "30519", "city": "Ipoh", "state": "Perak" },
  { "postcode": "30520", "city": "Ipoh", "state": "Perak" },
  { "postcode": "30524", "city": "Ipoh", "state": "Perak" },
  { "postcode": "30532", "city": "Ipoh", "state": "Perak" },
  { "postcode": "30534", "city": "Ipoh", "state": "Perak" },
  { "postcode": "30536", "city": "Ipoh", "state": "Perak" },
  { "postcode": "30540", "city": "Ipoh", "state": "Perak" },
  { "postcode": "30542", "city": "Ipoh", "state": "Perak" },
  { "postcode": "30546", "city": "Ipoh", "state": "Perak" },
  { "postcode": "30548", "city": "Ipoh", "state": "Perak" },
  { "postcode": "30550", "city": "Ipoh", "state": "Perak" },
  { "postcode": "30551", "city": "Ipoh", "state": "Perak" },
  { "postcode": "30552", "city": "Ipoh", "state": "Perak" },
  { "postcode": "30554", "city": "Ipoh", "state": "Perak" },
  { "postcode": "30556", "city": "Ipoh", "state": "Perak" },
  { "postcode": "30560", "city": "Ipoh", "state": "Perak" },
  { "postcode": "30564", "city": "Ipoh", "state": "Perak" },
  { "postcode": "30570", "city": "Ipoh", "state": "Perak" },
  { "postcode": "30576", "city": "Ipoh", "state": "Perak" },
  { "postcode": "30580", "city": "Ipoh", "state": "Perak" },
  { "postcode": "30582", "city": "Ipoh", "state": "Perak" },
  { "postcode": "30586", "city": "Ipoh", "state": "Perak" },
  { "postcode": "30590", "city": "Ipoh", "state": "Perak" },
  { "postcode": "30592", "city": "Ipoh", "state": "Perak" },
  { "postcode": "30594", "city": "Ipoh", "state": "Perak" },
  { "postcode": "30596", "city": "Ipoh", "state": "Perak" },
  { "postcode": "30600", "city": "Ipoh", "state": "Perak" },
  { "postcode": "30604", "city": "Ipoh", "state": "Perak" },
  { "postcode": "30606", "city": "Ipoh", "state": "Perak" },
  { "postcode": "30609", "city": "Ipoh", "state": "Perak" },
  { "postcode": "30610", "city": "Ipoh", "state": "Perak" },
  { "postcode": "30612", "city": "Ipoh", "state": "Perak" },
  { "postcode": "30614", "city": "Ipoh", "state": "Perak" },
  { "postcode": "30620", "city": "Ipoh", "state": "Perak" },
  { "postcode": "30621", "city": "Ipoh", "state": "Perak" },
  { "postcode": "30622", "city": "Ipoh", "state": "Perak" },
  { "postcode": "30626", "city": "Ipoh", "state": "Perak" },
  { "postcode": "30628", "city": "Ipoh", "state": "Perak" },
  { "postcode": "30630", "city": "Ipoh", "state": "Perak" },
  { "postcode": "30632", "city": "Ipoh", "state": "Perak" },
  { "postcode": "30634", "city": "Ipoh", "state": "Perak" },
  { "postcode": "30644", "city": "Ipoh", "state": "Perak" },
  { "postcode": "30646", "city": "Ipoh", "state": "Perak" },
  { "postcode": "30648", "city": "Ipoh", "state": "Perak" },
  { "postcode": "30656", "city": "Ipoh", "state": "Perak" },
  { "postcode": "30658", "city": "Ipoh", "state": "Perak" },
  { "postcode": "30660", "city": "Ipoh", "state": "Perak" },
  { "postcode": "30661", "city": "Ipoh", "state": "Perak" },
  { "postcode": "30662", "city": "Ipoh", "state": "Perak" },
  { "postcode": "30664", "city": "Ipoh", "state": "Perak" },
  { "postcode": "30668", "city": "Ipoh", "state": "Perak" },
  { "postcode": "30670", "city": "Ipoh", "state": "Perak" },
  { "postcode": "30673", "city": "Ipoh", "state": "Perak" },
  { "postcode": "30674", "city": "Ipoh", "state": "Perak" },
  { "postcode": "30676", "city": "Ipoh", "state": "Perak" },
  { "postcode": "30682", "city": "Ipoh", "state": "Perak" },
  { "postcode": "30690", "city": "Ipoh", "state": "Perak" },
  { "postcode": "30700", "city": "Ipoh", "state": "Perak" },
  { "postcode": "30710", "city": "Ipoh", "state": "Perak" },
  { "postcode": "30720", "city": "Ipoh", "state": "Perak" },
  { "postcode": "30730", "city": "Ipoh", "state": "Perak" },
  { "postcode": "30740", "city": "Ipoh", "state": "Perak" },
  { "postcode": "30750", "city": "Ipoh", "state": "Perak" },
  { "postcode": "30760", "city": "Ipoh", "state": "Perak" },
  { "postcode": "30770", "city": "Ipoh", "state": "Perak" },
  { "postcode": "30780", "city": "Ipoh", "state": "Perak" },
  { "postcode": "30790", "city": "Ipoh", "state": "Perak" },
  { "postcode": "30800", "city": "Ipoh", "state": "Perak" },
  { "postcode": "30810", "city": "Ipoh", "state": "Perak" },
  { "postcode": "30820", "city": "Ipoh", "state": "Perak" },
  { "postcode": "30830", "city": "Ipoh", "state": "Perak" },
  { "postcode": "30840", "city": "Ipoh", "state": "Perak" },
  { "postcode": "30900", "city": "Ipoh", "state": "Perak" },
  { "postcode": "30902", "city": "Ipoh", "state": "Perak" },
  { "postcode": "30904", "city": "Ipoh", "state": "Perak" },
  { "postcode": "30906", "city": "Ipoh", "state": "Perak" },
  { "postcode": "30908", "city": "Ipoh", "state": "Perak" },
  { "postcode": "30910", "city": "Ipoh", "state": "Perak" },
  { "postcode": "30912", "city": "Ipoh", "state": "Perak" },
  { "postcode": "30988", "city": "Ipoh", "state": "Perak" },
  { "postcode": "30990", "city": "Ipoh", "state": "Perak" }
]
