[
  { "postcode": "31000", "city": "Batu Gajah", "state": "Perak" },
  { "postcode": "31007", "city": "Batu Gajah", "state": "Perak" },
  { "postcode": "31009", "city": "Batu Gajah", "state": "Perak" },
  { "postcode": "31050", "city": "Sungai Siput", "state": "Perak" },
  { "postcode": "31100", "city": "Sungai Siput", "state": "Perak" },
  { "postcode": "31120", "city": "Sungai Siput", "state": "Perak" },
  { "postcode": "31150", "city": "Ulu Kinta", "state": "Perak" },
  { "postcode": "31199", "city": "Ulu Kinta", "state": "Perak" },
  { "postcode": "31200", "city": "Chemor", "state": "Perak" },
  { "postcode": "31250", "city": "Tanjong Rambutan", "state": "Perak" },
  { "postcode": "31300", "city": "Kampung Kepayang", "state": "Perak" },
  { "postcode": "31350", "city": "Ipoh", "state": "Perak" },
  { "postcode": "31400", "city": "Ipoh", "state": "Perak" },
  { "postcode": "31407", "city": "Ipoh", "state": "Perak" },
  { "postcode": "31409", "city": "Ipoh", "state": "Perak" },
  { "postcode": "31450", "city": "Ipoh", "state": "Perak" },
  { "postcode": "31500", "city": "Ipoh", "state": "Perak" },
  { "postcode": "31550", "city": "Pusing", "state": "Perak" },
  { "postcode": "31560", "city": "Pusing", "state": "Perak" },
  { "postcode": "31600", "city": "Gopeng", "state": "Perak" },
  { "postcode": "31610", "city": "Gopeng", "state": "Perak" },
  { "postcode": "31650", "city": "Ipoh", "state": "Perak" },
  { "postcode": "31672", "city": "Ipoh", "state": "Perak" },
  { "postcode": "31700", "city": "Malim Nawar", "state": "Perak" },
  { "postcode": "31750", "city": "Tronoh", "state": "Perak" },
  { "postcode": "31800", "city": "Tanjong Tualang", "state": "Perak" },
  { "postcode": "31850", "city": "Jeram", "state": "Perak" },
  { "postcode": "31900", "city": "Kampar", "state": "Perak" },
  { "postcode": "31907", "city": "Kampar", "state": "Perak" },
  { "postcode": "31909", "city": "Kampar", "state": "Perak" },
  { "postcode": "31910", "city": "Kampar", "state": "Perak" },
  { "postcode": "31920", "city": "Mambang Di Awan", "state": "Perak" },
  { "postcode": "31950", "city": "Mambang Di Awan", "state": "Perak" }
]
