[
  { "postcode": "32000", "city": "Sitiawan", "state": "Perak" },
  { "postcode": "32010", "city": "Sitiawan", "state": "Perak" },
  { "postcode": "32020", "city": "Sitiawan", "state": "Perak" },
  { "postcode": "32040", "city": "Seri Manjung", "state": "Perak" },
  { "postcode": "32050", "city": "Seri Manjung", "state": "Perak" },
  { "postcode": "32100", "city": "TLDM Lumut", "state": "Perak" },
  { "postcode": "32200", "city": "Lumut", "state": "Perak" },
  { "postcode": "32300", "city": "Pangkor", "state": "Perak" },
  { "postcode": "32400", "city": "Ayer Tawar", "state": "Perak" },
  { "postcode": "32500", "city": "Changkat Keruing", "state": "Perak" },
  { "postcode": "32600", "city": "Bota", "state": "Perak" },
  { "postcode": "32610", "city": "Bandar Seri Iskandar", "state": "Perak" },
  { "postcode": "32700", "city": "Bruas", "state": "Perak" },
  { "postcode": "32800", "city": "Parit", "state": "Perak" },
  { "postcode": "32810", "city": "Parit", "state": "Perak" },
  { "postcode": "32900", "city": "Lambor Kanan", "state": "Perak" },
  { "postcode": "32999", "city": "Lambor Kanan", "state": "Perak" }
]
