[
  { "postcode": "33000", "city": "Kuala Kangsar", "state": "Perak" },
  { "postcode": "33007", "city": "Kuala Kangsar", "state": "Perak" },
  { "postcode": "33009", "city": "Kuala Kangsar", "state": "Perak" },
  { "postcode": "33010", "city": "Kuala Kangsar", "state": "Perak" },
  { "postcode": "33020", "city": "Kuala Kangsar", "state": "Perak" },
  { "postcode": "33030", "city": "Kuala Kangsar", "state": "Perak" },
  { "postcode": "33040", "city": "Kuala Kangsar", "state": "Perak" },
  { "postcode": "33100", "city": "Pengkalan Hulu", "state": "Perak" },
  { "postcode": "33200", "city": "Intan", "state": "Perak" },
  { "postcode": "33300", "city": "Gerik", "state": "Perak" },
  { "postcode": "33310", "city": "Gerik", "state": "Perak" },
  { "postcode": "33320", "city": "Gerik", "state": "Perak" },
  { "postcode": "33400", "city": "Lenggong", "state": "Perak" },
  { "postcode": "33410", "city": "Lenggong", "state": "Perak" },
  { "postcode": "33420", "city": "Lenggong", "state": "Perak" },
  { "postcode": "33500", "city": "Sauk", "state": "Perak" },
  { "postcode": "33600", "city": "Enggor", "state": "Perak" },
  { "postcode": "33700", "city": "Padang Rengas", "state": "Perak" },
  { "postcode": "33800", "city": "Manong", "state": "Perak" }
]
