[
  { "postcode": "34000", "city": "Taiping", "state": "Perak" },
  { "postcode": "34007", "city": "Taiping", "state": "Perak" },
  { "postcode": "34008", "city": "Taiping", "state": "Perak" },
  { "postcode": "34009", "city": "Taiping", "state": "Perak" },
  { "postcode": "34010", "city": "Taiping", "state": "Perak" },
  { "postcode": "34020", "city": "Taiping", "state": "Perak" },
  { "postcode": "34030", "city": "Taiping", "state": "Perak" },
  { "postcode": "34100", "city": "Selama", "state": "Perak" },
  { "postcode": "34120", "city": "Selama", "state": "Perak" },
  { "postcode": "34130", "city": "Selama", "state": "Perak" },
  { "postcode": "34140", "city": "Rantau Panjang", "state": "Perak" },
  { "postcode": "34200", "city": "Parit Buntar", "state": "Perak" },
  { "postcode": "34250", "city": "Tanjong Piandang", "state": "Perak" },
  { "postcode": "34300", "city": "Bagan Serai", "state": "Perak" },
  { "postcode": "34310", "city": "Bagan Serai", "state": "Perak" },
  { "postcode": "34350", "city": "Kuala Kurau", "state": "Perak" },
  { "postcode": "34400", "city": "Simpang Ampat Semanggol", "state": "Perak" },
  { "postcode": "34500", "city": "Batu Kurau", "state": "Perak" },
  { "postcode": "34510", "city": "Batu Kurau", "state": "Perak" },
  { "postcode": "34520", "city": "Batu Kurau", "state": "Perak" },
  { "postcode": "34600", "city": "Kamunting", "state": "Perak" },
  { "postcode": "34650", "city": "Kuala Sepetang", "state": "Perak" },
  { "postcode": "34700", "city": "Simpang", "state": "Perak" },
  { "postcode": "34750", "city": "Matang", "state": "Perak" },
  { "postcode": "34800", "city": "Trong", "state": "Perak" },
  { "postcode": "34850", "city": "Changkat Jering", "state": "Perak" },
  { "postcode": "34900", "city": "Pantai Remis", "state": "Perak" },
  { "postcode": "34910", "city": "Pantai Remis", "state": "Perak" },
  { "postcode": "34950", "city": "Bandar Baharu", "state": "Kedah" }
]
