[
  { "postcode": "35000", "city": "Tapah", "state": "Perak" },
  { "postcode": "35007", "city": "Tapah", "state": "Perak" },
  { "postcode": "35009", "city": "Tapah", "state": "Perak" },
  { "postcode": "35300", "city": "Chenderiang", "state": "Perak" },
  { "postcode": "35350", "city": "Temoh", "state": "Perak" },
  { "postcode": "35400", "city": "Tapah Road", "state": "Perak" },
  { "postcode": "35500", "city": "Bidor", "state": "Perak" },
  { "postcode": "35600", "city": "Sungkai", "state": "Perak" },
  { "postcode": "35700", "city": "Trolak", "state": "Perak" },
  { "postcode": "35800", "city": "Slim River", "state": "Perak" },
  { "postcode": "35820", "city": "Slim River", "state": "Perak" },
  { "postcode": "35900", "city": "Tanjong Malim", "state": "Perak" },
  { "postcode": "35907", "city": "Tanjong Malim", "state": "Perak" },
  { "postcode": "35909", "city": "Tanjong Malim", "state": "Perak" },
  { "postcode": "35910", "city": "Tanjong Malim", "state": "Perak" },
  { "postcode": "35950", "city": "Behrang Stesen", "state": "Perak" }
]
