[
  { "postcode": "36000", "city": "Teluk Intan", "state": "Perak" },
  { "postcode": "36007", "city": "Teluk Intan", "state": "Perak" },
  { "postcode": "36008", "city": "Teluk Intan", "state": "Perak" },
  { "postcode": "36009", "city": "Teluk Intan", "state": "Perak" },
  { "postcode": "36010", "city": "Teluk Intan", "state": "Perak" },
  { "postcode": "36020", "city": "Teluk Intan", "state": "Perak" },
  { "postcode": "36030", "city": "Teluk Intan", "state": "Perak" },
  { "postcode": "36100", "city": "Bagan Datoh", "state": "Perak" },
  { "postcode": "36110", "city": "Teluk Intan", "state": "Perak" },
  { "postcode": "36200", "city": "Selekoh", "state": "Perak" },
  { "postcode": "36207", "city": "Selekoh", "state": "Perak" },
  { "postcode": "36209", "city": "Selekoh", "state": "Perak" },
  { "postcode": "36300", "city": "Sungai Sumun", "state": "Perak" },
  { "postcode": "36307", "city": "Sungai Sumun", "state": "Perak" },
  { "postcode": "36309", "city": "Sungai Sumun", "state": "Perak" },
  { "postcode": "36400", "city": "Hutan Melintang", "state": "Perak" },
  { "postcode": "36500", "city": "Ulu Bernam", "state": "Perak" },
  { "postcode": "36600", "city": "Chenderong Balai", "state": "Perak" },
  { "postcode": "36700", "city": "Langkap", "state": "Perak" },
  { "postcode": "36750", "city": "Chikus", "state": "Perak" },
  { "postcode": "36800", "city": "Kampung Gajah", "state": "Perak" },
  { "postcode": "36810", "city": "Kampung Gajah", "state": "Perak" }
]
