[
  { "postcode": "40000", "city": "Shah Alam", "state": "Selangor" },
  { "postcode": "40100", "city": "Shah Alam", "state": "Selangor" },
  { "postcode": "40140", "city": "Shah Alam", "state": "Selangor" },
  { "postcode": "40150", "city": "Shah Alam", "state": "Selangor" },
  { "postcode": "40160", "city": "Shah Alam", "state": "Selangor" },
  { "postcode": "40169", "city": "Shah Alam", "state": "Selangor" },
  { "postcode": "40170", "city": "Shah Alam", "state": "Selangor" },
  { "postcode": "40179", "city": "Shah Alam", "state": "Selangor" },
  { "postcode": "40200", "city": "Shah Alam", "state": "Selangor" },
  { "postcode": "40250", "city": "Shah Alam", "state": "Selangor" },
  { "postcode": "40300", "city": "Shah Alam", "state": "Selangor" },
  { "postcode": "40350", "city": "Shah Alam", "state": "Selangor" },
  { "postcode": "40400", "city": "Shah Alam", "state": "Selangor" },
  { "postcode": "40409", "city": "Shah Alam", "state": "Selangor" },
  { "postcode": "40410", "city": "Shah Alam", "state": "Selangor" },
  { "postcode": "40440", "city": "Shah Alam", "state": "Selangor" },
  { "postcode": "40450", "city": "Shah Alam", "state": "Selangor" },
  { "postcode": "40460", "city": "Shah Alam", "state": "Selangor" },
  { "postcode": "40470", "city": "Shah Alam", "state": "Selangor" },
  { "postcode": "40490", "city": "Shah Alam", "state": "Selangor" },
  { "postcode": "40500", "city": "Shah Alam", "state": "Selangor" },
  { "postcode": "40502", "city": "Shah Alam", "state": "Selangor" },
  { "postcode": "40503", "city": "Shah Alam", "state": "Selangor" },
  { "postcode": "40505", "city": "Shah Alam", "state": "Selangor" },
  { "postcode": "40512", "city": "Shah Alam", "state": "Selangor" },
  { "postcode": "40517", "city": "Shah Alam", "state": "Selangor" },
  { "postcode": "40520", "city": "Shah Alam", "state": "Selangor" },
  { "postcode": "40529", "city": "Shah Alam", "state": "Selangor" },
  { "postcode": "40542", "city": "Shah Alam", "state": "Selangor" },
  { "postcode": "40548", "city": "Shah Alam", "state": "Selangor" },
  { "postcode": "40550", "city": "Shah Alam", "state": "Selangor" },
  { "postcode": "40551", "city": "Shah Alam", "state": "Selangor" },
  { "postcode": "40560", "city": "Shah Alam", "state": "Selangor" },
  { "postcode": "40564", "city": "Shah Alam", "state": "Selangor" },
  { "postcode": "40570", "city": "Shah Alam", "state": "Selangor" },
  { "postcode": "40572", "city": "Shah Alam", "state": "Selangor" },
  { "postcode": "40576", "city": "Shah Alam", "state": "Selangor" },
  { "postcode": "40578", "city": "Shah Alam", "state": "Selangor" },
  { "postcode": "40582", "city": "Shah Alam", "state": "Selangor" },
  { "postcode": "40590", "city": "Shah Alam", "state": "Selangor" },
  { "postcode": "40592", "city": "Shah Alam", "state": "Selangor" },
  { "postcode": "40594", "city": "Shah Alam", "state": "Selangor" },
  { "postcode": "40596", "city": "Shah Alam", "state": "Selangor" },
  { "postcode": "40598", "city": "Shah Alam", "state": "Selangor" },
  { "postcode": "40600", "city": "Shah Alam", "state": "Selangor" },
  { "postcode": "40604", "city": "Shah Alam", "state": "Selangor" },
  { "postcode": "40607", "city": "Shah Alam", "state": "Selangor" },
  { "postcode": "40608", "city": "Shah Alam", "state": "Selangor" },
  { "postcode": "40610", "city": "Shah Alam", "state": "Selangor" },
  { "postcode": "40612", "city": "Shah Alam", "state": "Selangor" },
  { "postcode": "40620", "city": "Shah Alam", "state": "Selangor" },
  { "postcode": "40622", "city": "Shah Alam", "state": "Selangor" },
  { "postcode": "40626", "city": "Shah Alam", "state": "Selangor" },
  { "postcode": "40630", "city": "Shah Alam", "state": "Selangor" },
  { "postcode": "40632", "city": "Shah Alam", "state": "Selangor" },
  { "postcode": "40646", "city": "Shah Alam", "state": "Selangor" },
  { "postcode": "40648", "city": "Shah Alam", "state": "Selangor" },
  { "postcode": "40650", "city": "Shah Alam", "state": "Selangor" },
  { "postcode": "40660", "city": "Shah Alam", "state": "Selangor" },
  { "postcode": "40664", "city": "Shah Alam", "state": "Selangor" },
  { "postcode": "40670", "city": "Shah Alam", "state": "Selangor" },
  { "postcode": "40672", "city": "Shah Alam", "state": "Selangor" },
  { "postcode": "40673", "city": "Shah Alam", "state": "Selangor" },
  { "postcode": "40674", "city": "Shah Alam", "state": "Selangor" },
  { "postcode": "40675", "city": "Shah Alam", "state": "Selangor" },
  { "postcode": "40676", "city": "Shah Alam", "state": "Selangor" },
  { "postcode": "40680", "city": "Shah Alam", "state": "Selangor" },
  { "postcode": "40690", "city": "Shah Alam", "state": "Selangor" },
  { "postcode": "40700", "city": "Shah Alam", "state": "Selangor" },
  { "postcode": "40702", "city": "Shah Alam", "state": "Selangor" },
  { "postcode": "40704", "city": "Shah Alam", "state": "Selangor" },
  { "postcode": "40706", "city": "Shah Alam", "state": "Selangor" },
  { "postcode": "40708", "city": "Shah Alam", "state": "Selangor" },
  { "postcode": "40710", "city": "Shah Alam", "state": "Selangor" },
  { "postcode": "40712", "city": "Shah Alam", "state": "Selangor" },
  { "postcode": "40714", "city": "Shah Alam", "state": "Selangor" },
  { "postcode": "40716", "city": "Shah Alam", "state": "Selangor" },
  { "postcode": "40718", "city": "Shah Alam", "state": "Selangor" },
  { "postcode": "40720", "city": "Shah Alam", "state": "Selangor" },
  { "postcode": "40722", "city": "Shah Alam", "state": "Selangor" },
  { "postcode": "40724", "city": "Shah Alam", "state": "Selangor" },
  { "postcode": "40726", "city": "Shah Alam", "state": "Selangor" },
  { "postcode": "40728", "city": "Shah Alam", "state": "Selangor" },
  { "postcode": "40730", "city": "Shah Alam", "state": "Selangor" },
  { "postcode": "40732", "city": "Shah Alam", "state": "Selangor" },
  { "postcode": "40800", "city": "Shah Alam", "state": "Selangor" },
  { "postcode": "40802", "city": "Shah Alam", "state": "Selangor" },
  { "postcode": "40804", "city": "Shah Alam", "state": "Selangor" },
  { "postcode": "40806", "city": "Shah Alam", "state": "Selangor" },
  { "postcode": "40808", "city": "Shah Alam", "state": "Selangor" },
  { "postcode": "40810", "city": "Shah Alam", "state": "Selangor" },
  { "postcode": "40900", "city": "Shah Alam", "state": "Selangor" },
  { "postcode": "40912", "city": "Shah Alam", "state": "Selangor" },
  { "postcode": "40915", "city": "Shah Alam", "state": "Selangor" },
  { "postcode": "40990", "city": "Shah Alam", "state": "Selangor" }
]
