[
  { "postcode": "41000", "city": "Klang", "state": "Selangor" },
  { "postcode": "41050", "city": "Klang", "state": "Selangor" },
  { "postcode": "41070", "city": "Klang", "state": "Selangor" },
  { "postcode": "41100", "city": "Klang", "state": "Selangor" },
  { "postcode": "41150", "city": "Klang", "state": "Selangor" },
  { "postcode": "41160", "city": "Klang", "state": "Selangor" },
  { "postcode": "41200", "city": "Klang", "state": "Selangor" },
  { "postcode": "41205", "city": "Klang", "state": "Selangor" },
  { "postcode": "41250", "city": "Klang", "state": "Selangor" },
  { "postcode": "41299", "city": "Klang", "state": "Selangor" },
  { "postcode": "41300", "city": "Klang", "state": "Selangor" },
  { "postcode": "41301", "city": "Klang", "state": "Selangor" },
  { "postcode": "41400", "city": "Klang", "state": "Selangor" },
  { "postcode": "41500", "city": "Klang", "state": "Selangor" },
  { "postcode": "41506", "city": "Klang", "state": "Selangor" },
  { "postcode": "41560", "city": "Klang", "state": "Selangor" },
  { "postcode": "41586", "city": "Klang", "state": "Selangor" },
  { "postcode": "41600", "city": "Klang", "state": "Selangor" },
  { "postcode": "41670", "city": "Klang", "state": "Selangor" },
  { "postcode": "41672", "city": "Klang", "state": "Selangor" },
  { "postcode": "41700", "city": "Klang", "state": "Selangor" },
  { "postcode": "41710", "city": "Klang", "state": "Selangor" },
  { "postcode": "41720", "city": "Klang", "state": "Selangor" },
  { "postcode": "41730", "city": "Klang", "state": "Selangor" },
  { "postcode": "41750", "city": "Klang", "state": "Selangor" },
  { "postcode": "41780", "city": "Klang", "state": "Selangor" },
  { "postcode": "41900", "city": "Klang", "state": "Selangor" },
  { "postcode": "41902", "city": "Klang", "state": "Selangor" },
  { "postcode": "41904", "city": "Klang", "state": "Selangor" },
  { "postcode": "41906", "city": "Klang", "state": "Selangor" },
  { "postcode": "41908", "city": "Klang", "state": "Selangor" },
  { "postcode": "41910", "city": "Klang", "state": "Selangor" },
  { "postcode": "41912", "city": "Klang", "state": "Selangor" },
  { "postcode": "41914", "city": "Klang", "state": "Selangor" },
  { "postcode": "41916", "city": "Klang", "state": "Selangor" },
  { "postcode": "41918", "city": "Klang", "state": "Selangor" },
  { "postcode": "41990", "city": "Klang", "state": "Selangor" }
]
