[
  { "postcode": "42000", "city": "Pelabuhan Klang", "state": "Selangor" },
  { "postcode": "42007", "city": "Pelabuhan Klang", "state": "Selangor" },
  { "postcode": "42008", "city": "Pelabuhan Klang", "state": "Selangor" },
  { "postcode": "42009", "city": "Pelabuhan Klang", "state": "Selangor" },
  { "postcode": "42100", "city": "Klang", "state": "Selangor" },
  { "postcode": "42150", "city": "Klang", "state": "Selangor" },
  { "postcode": "42160", "city": "Rantau Panjang", "state": "Perak" },
  { "postcode": "42200", "city": "Kapar", "state": "Selangor" },
  { "postcode": "42209", "city": "Kapar", "state": "Selangor" },
  { "postcode": "42300", "city": "Bandar Puncak Alam", "state": "Selangor" },
  { "postcode": "42425", "city": "Telok Panglima Garang", "state": "Selangor" },
  { "postcode": "42450", "city": "Shah Alam", "state": "Selangor" },
  { "postcode": "42500", "city": "Telok Panglima Garang", "state": "Selangor" },
  { "postcode": "42507", "city": "Telok Panglima Garang", "state": "Selangor" },
  { "postcode": "42509", "city": "Telok Panglima Garang", "state": "Selangor" },
  { "postcode": "42600", "city": "Jenjarom", "state": "Selangor" },
  { "postcode": "42610", "city": "Jenjarom", "state": "Selangor" },
  { "postcode": "42619", "city": "Jenjarom", "state": "Selangor" },
  { "postcode": "42700", "city": "Banting", "state": "Selangor" },
  { "postcode": "42800", "city": "Tanjong Sepat", "state": "Selangor" },
  { "postcode": "42900", "city": "Pulau Indah", "state": "Selangor" },
  { "postcode": "42907", "city": "Pulau Indah", "state": "Selangor" },
  { "postcode": "42920", "city": "Pulau Indah", "state": "Selangor" },
  { "postcode": "42940", "city": "Pulau Ketam", "state": "Selangor" },
  { "postcode": "42960", "city": "Pulau Carey", "state": "Selangor" },
  { "postcode": "42999", "city": "Pulau Carey", "state": "Selangor" }
]
