[
  { "postcode": "43000", "city": "Kajang", "state": "Selangor" },
  { "postcode": "43007", "city": "Kajang", "state": "Selangor" },
  { "postcode": "43009", "city": "Kajang", "state": "Selangor" },
  { "postcode": "43100", "city": "Hulu Langat", "state": "Selangor" },
  { "postcode": "43200", "city": "Cheras", "state": "Selangor" },
  { "postcode": "43207", "city": "Cheras", "state": "Selangor" },
  { "postcode": "43300", "city": "Seri Kembangan", "state": "Selangor" },
  { "postcode": "43399", "city": "Seri Kembangan", "state": "Selangor" },
  { "postcode": "43400", "city": "Serdang", "state": "Selangor" },
  { "postcode": "43500", "city": "Semenyih", "state": "Selangor" },
  { "postcode": "43558", "city": "Kajang", "state": "Selangor" },
  { "postcode": "43600", "city": "Bangi", "state": "Selangor" },
  { "postcode": "43650", "city": "Bandar Baru Bangi", "state": "Selangor" },
  { "postcode": "43700", "city": "Beranang", "state": "Selangor" },
  { "postcode": "43701", "city": "Beranang", "state": "Selangor" },
  { "postcode": "43800", "city": "Dengkil", "state": "Selangor" },
  { "postcode": "43807", "city": "Dengkil", "state": "Selangor" },
  { "postcode": "43900", "city": "Sepang", "state": "Selangor" },
  { "postcode": "43950", "city": "Sungai Pelek", "state": "Selangor" },
  { "postcode": "43999", "city": "Sungai Pelek", "state": "Selangor" }
]
