[
  { "postcode": "45000", "city": "Kuala Selangor", "state": "Selangor" },
  { "postcode": "45010", "city": "Kuala Selangor", "state": "Selangor" },
  { "postcode": "45100", "city": "Sungai Ayer Tawar", "state": "Selangor" },
  { "postcode": "45200", "city": "Sabak Bernam", "state": "Selangor" },
  { "postcode": "45207", "city": "Sabak Bernam", "state": "Selangor" },
  { "postcode": "45209", "city": "Sabak Bernam", "state": "Selangor" },
  { "postcode": "45300", "city": "Sungai Besar", "state": "Selangor" },
  { "postcode": "45400", "city": "Sekinchan", "state": "Selangor" },
  { "postcode": "45500", "city": "Tanjong Karang", "state": "Selangor" },
  { "postcode": "45600", "city": "Batang Berjuntai", "state": "Selangor" },
  { "postcode": "45607", "city": "Batang Berjuntai", "state": "Selangor" },
  { "postcode": "45609", "city": "Batang Berjuntai", "state": "Selangor" },
  { "postcode": "45620", "city": "Batang Berjuntai", "state": "Selangor" },
  { "postcode": "45630", "city": "Batang Berjuntai", "state": "Selangor" },
  { "postcode": "45700", "city": "Bukit Rotan", "state": "Selangor" },
  { "postcode": "45800", "city": "Jeram", "state": "Selangor" }
]
