[
  { "postcode": "46000", "city": "Petaling Jaya", "state": "Selangor" },
  { "postcode": "46040", "city": "Petaling Jaya", "state": "Selangor" },
  { "postcode": "46050", "city": "Petaling Jaya", "state": "Selangor" },
  { "postcode": "46080", "city": "Petaling Jaya", "state": "Selangor" },
  { "postcode": "46100", "city": "Petaling Jaya", "state": "Selangor" },
  { "postcode": "46150", "city": "Petaling Jaya", "state": "Selangor" },
  { "postcode": "46160", "city": "Petaling Jaya", "state": "Selangor" },
  { "postcode": "46200", "city": "Petaling Jaya", "state": "Selangor" },
  { "postcode": "46300", "city": "Petaling Jaya", "state": "Selangor" },
  { "postcode": "46350", "city": "Petaling Jaya", "state": "Selangor" },
  { "postcode": "46400", "city": "Petaling Jaya", "state": "Selangor" },
  { "postcode": "46460", "city": "Petaling Jaya", "state": "Selangor" },
  { "postcode": "46500", "city": "Petaling Jaya", "state": "Selangor" },
  { "postcode": "46505", "city": "Petaling Jaya", "state": "Selangor" },
  { "postcode": "46506", "city": "Petaling Jaya", "state": "Selangor" },
  { "postcode": "46510", "city": "Petaling Jaya", "state": "Selangor" },
  { "postcode": "46547", "city": "Petaling Jaya", "state": "Selangor" },
  { "postcode": "46549", "city": "Petaling Jaya", "state": "Selangor" },
  { "postcode": "46551", "city": "Petaling Jaya", "state": "Selangor" },
  { "postcode": "46564", "city": "Petaling Jaya", "state": "Selangor" },
  { "postcode": "46582", "city": "Petaling Jaya", "state": "Selangor" },
  { "postcode": "46598", "city": "Petaling Jaya", "state": "Selangor" },
  { "postcode": "46662", "city": "Petaling Jaya", "state": "Selangor" },
  { "postcode": "46667", "city": "Petaling Jaya", "state": "Selangor" },
  { "postcode": "46668", "city": "Petaling Jaya", "state": "Selangor" },
  { "postcode": "46672", "city": "Petaling Jaya", "state": "Selangor" },
  { "postcode": "46675", "city": "Petaling Jaya", "state": "Selangor" },
  { "postcode": "46692", "city": "Petaling Jaya", "state": "Selangor" },
  { "postcode": "46700", "city": "Petaling Jaya", "state": "Selangor" },
  { "postcode": "46710", "city": "Petaling Jaya", "state": "Selangor" },
  { "postcode": "46720", "city": "Petaling Jaya", "state": "Selangor" },
  { "postcode": "46730", "city": "Petaling Jaya", "state": "Selangor" },
  { "postcode": "46740", "city": "Petaling Jaya", "state": "Selangor" },
  { "postcode": "46750", "city": "Petaling Jaya", "state": "Selangor" },
  { "postcode": "46760", "city": "Petaling Jaya", "state": "Selangor" },
  { "postcode": "46770", "city": "Petaling Jaya", "state": "Selangor" },
  { "postcode": "46780", "city": "Petaling Jaya", "state": "Selangor" },
  { "postcode": "46781", "city": "Petaling Jaya", "state": "Selangor" },
  { "postcode": "46782", "city": "Petaling Jaya", "state": "Selangor" },
  { "postcode": "46783", "city": "Petaling Jaya", "state": "Selangor" },
  { "postcode": "46784", "city": "Petaling Jaya", "state": "Selangor" },
  { "postcode": "46785", "city": "Petaling Jaya", "state": "Selangor" },
  { "postcode": "46786", "city": "Petaling Jaya", "state": "Selangor" },
  { "postcode": "46787", "city": "Petaling Jaya", "state": "Selangor" },
  { "postcode": "46788", "city": "Petaling Jaya", "state": "Selangor" },
  { "postcode": "46789", "city": "Petaling Jaya", "state": "Selangor" },
  { "postcode": "46790", "city": "Petaling Jaya", "state": "Selangor" },
  { "postcode": "46791", "city": "Petaling Jaya", "state": "Selangor" },
  { "postcode": "46792", "city": "Petaling Jaya", "state": "Selangor" },
  { "postcode": "46793", "city": "Petaling Jaya", "state": "Selangor" },
  { "postcode": "46794", "city": "Petaling Jaya", "state": "Selangor" },
  { "postcode": "46795", "city": "Petaling Jaya", "state": "Selangor" },
  { "postcode": "46796", "city": "Petaling Jaya", "state": "Selangor" },
  { "postcode": "46797", "city": "Petaling Jaya", "state": "Selangor" },
  { "postcode": "46798", "city": "Petaling Jaya", "state": "Selangor" },
  { "postcode": "46799", "city": "Petaling Jaya", "state": "Selangor" },
  { "postcode": "46800", "city": "Petaling Jaya", "state": "Selangor" },
  { "postcode": "46801", "city": "Petaling Jaya", "state": "Selangor" },
  { "postcode": "46802", "city": "Petaling Jaya", "state": "Selangor" },
  { "postcode": "46803", "city": "Petaling Jaya", "state": "Selangor" },
  { "postcode": "46804", "city": "Petaling Jaya", "state": "Selangor" },
  { "postcode": "46805", "city": "Petaling Jaya", "state": "Selangor" },
  { "postcode": "46806", "city": "Petaling Jaya", "state": "Selangor" },
  { "postcode": "46860", "city": "Petaling Jaya", "state": "Selangor" },
  { "postcode": "46870", "city": "Petaling Jaya", "state": "Selangor" },
  { "postcode": "46960", "city": "Petaling Jaya", "state": "Selangor" },
  { "postcode": "46962", "city": "Petaling Jaya", "state": "Selangor" },
  { "postcode": "46964", "city": "Petaling Jaya", "state": "Selangor" },
  { "postcode": "46966", "city": "Petaling Jaya", "state": "Selangor" },
  { "postcode": "46968", "city": "Petaling Jaya", "state": "Selangor" },
  { "postcode": "46970", "city": "Petaling Jaya", "state": "Selangor" },
  { "postcode": "46972", "city": "Petaling Jaya", "state": "Selangor" },
  { "postcode": "46974", "city": "Petaling Jaya", "state": "Selangor" },
  { "postcode": "46976", "city": "Petaling Jaya", "state": "Selangor" },
  { "postcode": "46978", "city": "Petaling Jaya", "state": "Selangor" },
  { "postcode": "46990", "city": "Petaling Jaya", "state": "Selangor" }
]
