[
  { "postcode": "47000", "city": "Sungai Buloh", "state": "Selangor" },
  { "postcode": "47020", "city": "Sungai Buloh", "state": "Selangor" },
  { "postcode": "47031", "city": "Sungai Buloh", "state": "Selangor" },
  { "postcode": "47100", "city": "Puchong", "state": "Selangor" },
  { "postcode": "47110", "city": "Puchong", "state": "Selangor" },
  { "postcode": "47120", "city": "Puchong", "state": "Selangor" },
  { "postcode": "47130", "city": "Puchong", "state": "Selangor" },
  { "postcode": "47140", "city": "Puchong", "state": "Selangor" },
  { "postcode": "47150", "city": "Puchong", "state": "Selangor" },
  { "postcode": "47160", "city": "Puchong", "state": "Selangor" },
  { "postcode": "47170", "city": "Puchong", "state": "Selangor" },
  { "postcode": "47180", "city": "Puchong", "state": "Selangor" },
  { "postcode": "47190", "city": "Puchong", "state": "Selangor" },
  { "postcode": "47200", "city": "Subang Airport", "state": "Selangor" },
  { "postcode": "47210", "city": "Subang Airport", "state": "Selangor" },
  { "postcode": "47300", "city": "Petaling Jaya", "state": "Selangor" },
  { "postcode": "47301", "city": "Petaling Jaya", "state": "Selangor" },
  { "postcode": "47304", "city": "Petaling Jaya", "state": "Selangor" },
  { "postcode": "47307", "city": "Petaling Jaya", "state": "Selangor" },
  { "postcode": "47308", "city": "Petaling Jaya", "state": "Selangor" },
  { "postcode": "47309", "city": "Petaling Jaya", "state": "Selangor" },
  { "postcode": "47310", "city": "Petaling Jaya", "state": "Selangor" },
  { "postcode": "47400", "city": "Petaling Jaya", "state": "Selangor" },
  { "postcode": "47410", "city": "Petaling Jaya", "state": "Selangor" },
  { "postcode": "47430", "city": "Petaling Jaya", "state": "Selangor" },
  { "postcode": "47500", "city": "Subang Jaya", "state": "Selangor" },
  { "postcode": "47507", "city": "Subang Jaya", "state": "Selangor" },
  { "postcode": "47510", "city": "Subang Jaya", "state": "Selangor" },
  { "postcode": "47600", "city": "Subang Jaya", "state": "Selangor" },
  { "postcode": "47601", "city": "Subang Jaya", "state": "Selangor" },
  { "postcode": "47610", "city": "Subang Jaya", "state": "Selangor" },
  { "postcode": "47618", "city": "Subang Jaya", "state": "Selangor" },
  { "postcode": "47620", "city": "Subang Jaya", "state": "Selangor" },
  { "postcode": "47630", "city": "Subang Jaya", "state": "Selangor" },
  { "postcode": "47640", "city": "Subang Jaya", "state": "Selangor" },
  { "postcode": "47650", "city": "Subang Jaya", "state": "Selangor" },
  { "postcode": "47800", "city": "Petaling Jaya", "state": "Selangor" },
  { "postcode": "47801", "city": "Petaling Jaya", "state": "Selangor" },
  { "postcode": "47810", "city": "Petaling Jaya", "state": "Selangor" },
  { "postcode": "47820", "city": "Petaling Jaya", "state": "Selangor" },
  { "postcode": "47829", "city": "Petaling Jaya", "state": "Selangor" },
  { "postcode": "47830", "city": "Petaling Jaya", "state": "Selangor" },
  { "postcode": "47850", "city": "Petaling Jaya", "state": "Selangor" }
]
