[
  { "postcode": "50000", "city": "Kuala Lumpur", "state": "Kuala Lumpur" },
  { "postcode": "50050", "city": "Kuala Lumpur", "state": "Kuala Lumpur" },
  { "postcode": "50088", "city": "Kuala Lumpur", "state": "Kuala Lumpur" },
  { "postcode": "50100", "city": "Kuala Lumpur", "state": "Kuala Lumpur" },
  { "postcode": "50150", "city": "Kuala Lumpur", "state": "Kuala Lumpur" },
  { "postcode": "50200", "city": "Kuala Lumpur", "state": "Kuala Lumpur" },
  { "postcode": "50250", "city": "Kuala Lumpur", "state": "Kuala Lumpur" },
  { "postcode": "50300", "city": "Kuala Lumpur", "state": "Kuala Lumpur" },
  { "postcode": "50350", "city": "Kuala Lumpur", "state": "Kuala Lumpur" },
  { "postcode": "50400", "city": "Kuala Lumpur", "state": "Kuala Lumpur" },
  { "postcode": "50420", "city": "Kuala Lumpur", "state": "Kuala Lumpur" },
  { "postcode": "50450", "city": "Kuala Lumpur", "state": "Kuala Lumpur" },
  { "postcode": "50460", "city": "Kuala Lumpur", "state": "Kuala Lumpur" },
  { "postcode": "50470", "city": "Kuala Lumpur", "state": "Kuala Lumpur" },
  { "postcode": "50480", "city": "Kuala Lumpur", "state": "Kuala Lumpur" },
  { "postcode": "50489", "city": "Kuala Lumpur", "state": "Kuala Lumpur" },
  { "postcode": "50490", "city": "Kuala Lumpur", "state": "Kuala Lumpur" },
  { "postcode": "50500", "city": "Kuala Lumpur", "state": "Kuala Lumpur" },
  { "postcode": "50502", "city": "Kuala Lumpur", "state": "Kuala Lumpur" },
  { "postcode": "50504", "city": "Kuala Lumpur", "state": "Kuala Lumpur" },
  { "postcode": "50505", "city": "Kuala Lumpur", "state": "Kuala Lumpur" },
  { "postcode": "50506", "city": "Kuala Lumpur", "state": "Kuala Lumpur" },
  { "postcode": "50507", "city": "Kuala Lumpur", "state": "Kuala Lumpur" },
  { "postcode": "50508", "city": "Kuala Lumpur", "state": "Kuala Lumpur" },
  { "postcode": "50512", "city": "Kuala Lumpur", "state": "Kuala Lumpur" },
  { "postcode": "50514", "city": "Kuala Lumpur", "state": "Kuala Lumpur" },
  { "postcode": "50515", "city": "Kuala Lumpur", "state": "Kuala Lumpur" },
  { "postcode": "50519", "city": "Kuala Lumpur", "state": "Kuala Lumpur" },
  { "postcode": "50528", "city": "Kuala Lumpur", "state": "Kuala Lumpur" },
  { "postcode": "50529", "city": "Kuala Lumpur", "state": "Kuala Lumpur" },
  { "postcode": "50530", "city": "Kuala Lumpur", "state": "Kuala Lumpur" },
  { "postcode": "50532", "city": "Kuala Lumpur", "state": "Kuala Lumpur" },
  { "postcode": "50534", "city": "Kuala Lumpur", "state": "Kuala Lumpur" },
  { "postcode": "50536", "city": "Kuala Lumpur", "state": "Kuala Lumpur" },
  { "postcode": "50538", "city": "Kuala Lumpur", "state": "Kuala Lumpur" },
  { "postcode": "50540", "city": "Kuala Lumpur", "state": "Kuala Lumpur" },
  { "postcode": "50544", "city": "Kuala Lumpur", "state": "Kuala Lumpur" },
  { "postcode": "50546", "city": "Kuala Lumpur", "state": "Kuala Lumpur" },
  { "postcode": "50548", "city": "Kuala Lumpur", "state": "Kuala Lumpur" },
  { "postcode": "50550", "city": "Kuala Lumpur", "state": "Kuala Lumpur" },
  { "postcode": "50551", "city": "Kuala Lumpur", "state": "Kuala Lumpur" },
  { "postcode": "50552", "city": "Kuala Lumpur", "state": "Kuala Lumpur" },
  { "postcode": "50554", "city": "Kuala Lumpur", "state": "Kuala Lumpur" },
  { "postcode": "50556", "city": "Kuala Lumpur", "state": "Kuala Lumpur" },
  { "postcode": "50560", "city": "Kuala Lumpur", "state": "Kuala Lumpur" },
  { "postcode": "50562", "city": "Kuala Lumpur", "state": "Kuala Lumpur" },
  { "postcode": "50564", "city": "Kuala Lumpur", "state": "Kuala Lumpur" },
  { "postcode": "50566", "city": "Kuala Lumpur", "state": "Kuala Lumpur" },
  { "postcode": "50568", "city": "Kuala Lumpur", "state": "Kuala Lumpur" },
  { "postcode": "50572", "city": "Kuala Lumpur", "state": "Kuala Lumpur" },
  { "postcode": "50576", "city": "Kuala Lumpur", "state": "Kuala Lumpur" },
  { "postcode": "50578", "city": "Kuala Lumpur", "state": "Kuala Lumpur" },
  { "postcode": "50580", "city": "Kuala Lumpur", "state": "Kuala Lumpur" },
  { "postcode": "50582", "city": "Kuala Lumpur", "state": "Kuala Lumpur" },
  { "postcode": "50586", "city": "Kuala Lumpur", "state": "Kuala Lumpur" },
  { "postcode": "50588", "city": "Kuala Lumpur", "state": "Kuala Lumpur" },
  { "postcode": "50590", "city": "Kuala Lumpur", "state": "Kuala Lumpur" },
  { "postcode": "50592", "city": "Kuala Lumpur", "state": "Kuala Lumpur" },
  { "postcode": "50594", "city": "Kuala Lumpur", "state": "Kuala Lumpur" },
  { "postcode": "50596", "city": "Kuala Lumpur", "state": "Kuala Lumpur" },
  { "postcode": "50598", "city": "Kuala Lumpur", "state": "Kuala Lumpur" },
  { "postcode": "50599", "city": "Kuala Lumpur", "state": "Kuala Lumpur" },
  { "postcode": "50600", "city": "Kuala Lumpur", "state": "Kuala Lumpur" },
  { "postcode": "50603", "city": "Kuala Lumpur", "state": "Kuala Lumpur" },
  { "postcode": "50604", "city": "Kuala Lumpur", "state": "Kuala Lumpur" },
  { "postcode": "50605", "city": "Kuala Lumpur", "state": "Kuala Lumpur" },
  { "postcode": "50608", "city": "Kuala Lumpur", "state": "Kuala Lumpur" },
  { "postcode": "50609", "city": "Kuala Lumpur", "state": "Kuala Lumpur" },
  { "postcode": "50610", "city": "Kuala Lumpur", "state": "Kuala Lumpur" },
  { "postcode": "50612", "city": "Kuala Lumpur", "state": "Kuala Lumpur" },
  { "postcode": "50614", "city": "Kuala Lumpur", "state": "Kuala Lumpur" },
  { "postcode": "50620", "city": "Kuala Lumpur", "state": "Kuala Lumpur" },
  { "postcode": "50621", "city": "Kuala Lumpur", "state": "Kuala Lumpur" },
  { "postcode": "50622", "city": "Kuala Lumpur", "state": "Kuala Lumpur" },
  { "postcode": "50623", "city": "Kuala Lumpur", "state": "Kuala Lumpur" },
  { "postcode": "50626", "city": "Kuala Lumpur", "state": "Kuala Lumpur" },
  { "postcode": "50630", "city": "Kuala Lumpur", "state": "Kuala Lumpur" },
  { "postcode": "50632", "city": "Kuala Lumpur", "state": "Kuala Lumpur" },
  { "postcode": "50634", "city": "Kuala Lumpur", "state": "Kuala Lumpur" },
  { "postcode": "50636", "city": "Kuala Lumpur", "state": "Kuala Lumpur" },
  { "postcode": "50638", "city": "Kuala Lumpur", "state": "Kuala Lumpur" },
  { "postcode": "50640", "city": "Kuala Lumpur", "state": "Kuala Lumpur" },
  { "postcode": "50642", "city": "Kuala Lumpur", "state": "Kuala Lumpur" },
  { "postcode": "50644", "city": "Kuala Lumpur", "state": "Kuala Lumpur" },
  { "postcode": "50646", "city": "Kuala Lumpur", "state": "Kuala Lumpur" },
  { "postcode": "50648", "city": "Kuala Lumpur", "state": "Kuala Lumpur" },
  { "postcode": "50650", "city": "Kuala Lumpur", "state": "Kuala Lumpur" },
  { "postcode": "50652", "city": "Kuala Lumpur", "state": "Kuala Lumpur" },
  { "postcode": "50653", "city": "Kuala Lumpur", "state": "Kuala Lumpur" },
  { "postcode": "50656", "city": "Kuala Lumpur", "state": "Kuala Lumpur" },
  { "postcode": "50658", "city": "Kuala Lumpur", "state": "Kuala Lumpur" },
  { "postcode": "50660", "city": "Kuala Lumpur", "state": "Kuala Lumpur" },
  { "postcode": "50661", "city": "Kuala Lumpur", "state": "Kuala Lumpur" },
  { "postcode": "50662", "city": "Kuala Lumpur", "state": "Kuala Lumpur" },
  { "postcode": "50664", "city": "Kuala Lumpur", "state": "Kuala Lumpur" },
  { "postcode": "50666", "city": "Kuala Lumpur", "state": "Kuala Lumpur" },
  { "postcode": "50668", "city": "Kuala Lumpur", "state": "Kuala Lumpur" },
  { "postcode": "50670", "city": "Kuala Lumpur", "state": "Kuala Lumpur" },
  { "postcode": "50672", "city": "Kuala Lumpur", "state": "Kuala Lumpur" },
  { "postcode": "50673", "city": "Kuala Lumpur", "state": "Kuala Lumpur" },
  { "postcode": "50674", "city": "Kuala Lumpur", "state": "Kuala Lumpur" },
  { "postcode": "50676", "city": "Kuala Lumpur", "state": "Kuala Lumpur" },
  { "postcode": "50677", "city": "Kuala Lumpur", "state": "Kuala Lumpur" },
  { "postcode": "50678", "city": "Kuala Lumpur", "state": "Kuala Lumpur" },
  { "postcode": "50680", "city": "Kuala Lumpur", "state": "Kuala Lumpur" },
  { "postcode": "50682", "city": "Kuala Lumpur", "state": "Kuala Lumpur" },
  { "postcode": "50684", "city": "Kuala Lumpur", "state": "Kuala Lumpur" },
  { "postcode": "50688", "city": "Kuala Lumpur", "state": "Kuala Lumpur" },
  { "postcode": "50694", "city": "Kuala Lumpur", "state": "Kuala Lumpur" },
  { "postcode": "50700", "city": "Kuala Lumpur", "state": "Kuala Lumpur" },
  { "postcode": "50702", "city": "Kuala Lumpur", "state": "Kuala Lumpur" },
  { "postcode": "50704", "city": "Kuala Lumpur", "state": "Kuala Lumpur" },
  { "postcode": "50706", "city": "Kuala Lumpur", "state": "Kuala Lumpur" },
  { "postcode": "50708", "city": "Kuala Lumpur", "state": "Kuala Lumpur" },
  { "postcode": "50710", "city": "Kuala Lumpur", "state": "Kuala Lumpur" },
  { "postcode": "50712", "city": "Kuala Lumpur", "state": "Kuala Lumpur" },
  { "postcode": "50714", "city": "Kuala Lumpur", "state": "Kuala Lumpur" },
  { "postcode": "50716", "city": "Kuala Lumpur", "state": "Kuala Lumpur" },
  { "postcode": "50718", "city": "Kuala Lumpur", "state": "Kuala Lumpur" },
  { "postcode": "50720", "city": "Kuala Lumpur", "state": "Kuala Lumpur" },
  { "postcode": "50722", "city": "Kuala Lumpur", "state": "Kuala Lumpur" },
  { "postcode": "50724", "city": "Kuala Lumpur", "state": "Kuala Lumpur" },
  { "postcode": "50726", "city": "Kuala Lumpur", "state": "Kuala Lumpur" },
  { "postcode": "50728", "city": "Kuala Lumpur", "state": "Kuala Lumpur" },
  { "postcode": "50730", "city": "Kuala Lumpur", "state": "Kuala Lumpur" },
  { "postcode": "50732", "city": "Kuala Lumpur", "state": "Kuala Lumpur" },
  { "postcode": "50734", "city": "Kuala Lumpur", "state": "Kuala Lumpur" },
  { "postcode": "50736", "city": "Kuala Lumpur", "state": "Kuala Lumpur" },
  { "postcode": "50738", "city": "Kuala Lumpur", "state": "Kuala Lumpur" },
  { "postcode": "50740", "city": "Kuala Lumpur", "state": "Kuala Lumpur" },
  { "postcode": "50742", "city": "Kuala Lumpur", "state": "Kuala Lumpur" },
  { "postcode": "50744", "city": "Kuala Lumpur", "state": "Kuala Lumpur" },
  { "postcode": "50746", "city": "Kuala Lumpur", "state": "Kuala Lumpur" },
  { "postcode": "50748", "city": "Kuala Lumpur", "state": "Kuala Lumpur" },
  { "postcode": "50750", "city": "Kuala Lumpur", "state": "Kuala Lumpur" },
  { "postcode": "50752", "city": "Kuala Lumpur", "state": "Kuala Lumpur" },
  { "postcode": "50754", "city": "Kuala Lumpur", "state": "Kuala Lumpur" },
  { "postcode": "50758", "city": "Kuala Lumpur", "state": "Kuala Lumpur" },
  { "postcode": "50760", "city": "Kuala Lumpur", "state": "Kuala Lumpur" },
  { "postcode": "50762", "city": "Kuala Lumpur", "state": "Kuala Lumpur" },
  { "postcode": "50764", "city": "Kuala Lumpur", "state": "Kuala Lumpur" },
  { "postcode": "50766", "city": "Kuala Lumpur", "state": "Kuala Lumpur" },
  { "postcode": "50768", "city": "Kuala Lumpur", "state": "Kuala Lumpur" },
  { "postcode": "50770", "city": "Kuala Lumpur", "state": "Kuala Lumpur" },
  { "postcode": "50772", "city": "Kuala Lumpur", "state": "Kuala Lumpur" },
  { "postcode": "50774", "city": "Kuala Lumpur", "state": "Kuala Lumpur" },
  { "postcode": "50776", "city": "Kuala Lumpur", "state": "Kuala Lumpur" },
  { "postcode": "50778", "city": "Kuala Lumpur", "state": "Kuala Lumpur" },
  { "postcode": "50780", "city": "Kuala Lumpur", "state": "Kuala Lumpur" },
  { "postcode": "50782", "city": "Kuala Lumpur", "state": "Kuala Lumpur" },
  { "postcode": "50784", "city": "Kuala Lumpur", "state": "Kuala Lumpur" },
  { "postcode": "50786", "city": "Kuala Lumpur", "state": "Kuala Lumpur" },
  { "postcode": "50788", "city": "Kuala Lumpur", "state": "Kuala Lumpur" },
  { "postcode": "50790", "city": "Kuala Lumpur", "state": "Kuala Lumpur" },
  { "postcode": "50792", "city": "Kuala Lumpur", "state": "Kuala Lumpur" },
  { "postcode": "50794", "city": "Kuala Lumpur", "state": "Kuala Lumpur" },
  { "postcode": "50796", "city": "Kuala Lumpur", "state": "Kuala Lumpur" },
  { "postcode": "50798", "city": "Kuala Lumpur", "state": "Kuala Lumpur" },
  { "postcode": "50800", "city": "Kuala Lumpur", "state": "Kuala Lumpur" },
  { "postcode": "50802", "city": "Kuala Lumpur", "state": "Kuala Lumpur" },
  { "postcode": "50804", "city": "Kuala Lumpur", "state": "Kuala Lumpur" },
  { "postcode": "50806", "city": "Kuala Lumpur", "state": "Kuala Lumpur" },
  { "postcode": "50808", "city": "Kuala Lumpur", "state": "Kuala Lumpur" },
  { "postcode": "50810", "city": "Kuala Lumpur", "state": "Kuala Lumpur" },
  { "postcode": "50812", "city": "Kuala Lumpur", "state": "Kuala Lumpur" },
  { "postcode": "50814", "city": "Kuala Lumpur", "state": "Kuala Lumpur" },
  { "postcode": "50816", "city": "Kuala Lumpur", "state": "Kuala Lumpur" },
  { "postcode": "50818", "city": "Kuala Lumpur", "state": "Kuala Lumpur" },
  { "postcode": "50901", "city": "Kuala Lumpur", "state": "Kuala Lumpur" },
  { "postcode": "50902", "city": "Kuala Lumpur", "state": "Kuala Lumpur" },
  { "postcode": "50903", "city": "Kuala Lumpur", "state": "Kuala Lumpur" },
  { "postcode": "50904", "city": "Kuala Lumpur", "state": "Kuala Lumpur" },
  { "postcode": "50906", "city": "Kuala Lumpur", "state": "Kuala Lumpur" },
  { "postcode": "50907", "city": "Kuala Lumpur", "state": "Kuala Lumpur" },
  { "postcode": "50908", "city": "Kuala Lumpur", "state": "Kuala Lumpur" },
  { "postcode": "50909", "city": "Kuala Lumpur", "state": "Kuala Lumpur" },
  { "postcode": "50910", "city": "Kuala Lumpur", "state": "Kuala Lumpur" },
  { "postcode": "50911", "city": "Kuala Lumpur", "state": "Kuala Lumpur" },
  { "postcode": "50912", "city": "Kuala Lumpur", "state": "Kuala Lumpur" },
  { "postcode": "50913", "city": "Kuala Lumpur", "state": "Kuala Lumpur" },
  { "postcode": "50914", "city": "Kuala Lumpur", "state": "Kuala Lumpur" },
  { "postcode": "50915", "city": "Kuala Lumpur", "state": "Kuala Lumpur" },
  { "postcode": "50916", "city": "Kuala Lumpur", "state": "Kuala Lumpur" },
  { "postcode": "50917", "city": "Kuala Lumpur", "state": "Kuala Lumpur" },
  { "postcode": "50918", "city": "Kuala Lumpur", "state": "Kuala Lumpur" },
  { "postcode": "50919", "city": "Kuala Lumpur", "state": "Kuala Lumpur" },
  { "postcode": "50920", "city": "Kuala Lumpur", "state": "Kuala Lumpur" },
  { "postcode": "50921", "city": "Kuala Lumpur", "state": "Kuala Lumpur" },
  { "postcode": "50922", "city": "Kuala Lumpur", "state": "Kuala Lumpur" },
  { "postcode": "50923", "city": "Kuala Lumpur", "state": "Kuala Lumpur" },
  { "postcode": "50924", "city": "Kuala Lumpur", "state": "Kuala Lumpur" },
  { "postcode": "50925", "city": "Kuala Lumpur", "state": "Kuala Lumpur" },
  { "postcode": "50926", "city": "Kuala Lumpur", "state": "Kuala Lumpur" },
  { "postcode": "50927", "city": "Kuala Lumpur", "state": "Kuala Lumpur" },
  { "postcode": "50928", "city": "Kuala Lumpur", "state": "Kuala Lumpur" },
  { "postcode": "50929", "city": "Kuala Lumpur", "state": "Kuala Lumpur" },
  { "postcode": "50930", "city": "Kuala Lumpur", "state": "Kuala Lumpur" },
  { "postcode": "50931", "city": "Kuala Lumpur", "state": "Kuala Lumpur" },
  { "postcode": "50932", "city": "Kuala Lumpur", "state": "Kuala Lumpur" },
  { "postcode": "50933", "city": "Kuala Lumpur", "state": "Kuala Lumpur" },
  { "postcode": "50934", "city": "Kuala Lumpur", "state": "Kuala Lumpur" },
  { "postcode": "50935", "city": "Kuala Lumpur", "state": "Kuala Lumpur" },
  { "postcode": "50936", "city": "Kuala Lumpur", "state": "Kuala Lumpur" },
  { "postcode": "50937", "city": "Kuala Lumpur", "state": "Kuala Lumpur" },
  { "postcode": "50938", "city": "Kuala Lumpur", "state": "Kuala Lumpur" },
  { "postcode": "50939", "city": "Kuala Lumpur", "state": "Kuala Lumpur" },
  { "postcode": "50940", "city": "Kuala Lumpur", "state": "Kuala Lumpur" },
  { "postcode": "50941", "city": "Kuala Lumpur", "state": "Kuala Lumpur" },
  { "postcode": "50942", "city": "Kuala Lumpur", "state": "Kuala Lumpur" },
  { "postcode": "50943", "city": "Kuala Lumpur", "state": "Kuala Lumpur" },
  { "postcode": "50944", "city": "Kuala Lumpur", "state": "Kuala Lumpur" },
  { "postcode": "50945", "city": "Kuala Lumpur", "state": "Kuala Lumpur" },
  { "postcode": "50946", "city": "Kuala Lumpur", "state": "Kuala Lumpur" },
  { "postcode": "50947", "city": "Kuala Lumpur", "state": "Kuala Lumpur" },
  { "postcode": "50948", "city": "Kuala Lumpur", "state": "Kuala Lumpur" },
  { "postcode": "50949", "city": "Kuala Lumpur", "state": "Kuala Lumpur" },
  { "postcode": "50950", "city": "Kuala Lumpur", "state": "Kuala Lumpur" },
  { "postcode": "50988", "city": "Kuala Lumpur", "state": "Kuala Lumpur" },
  { "postcode": "50989", "city": "Kuala Lumpur", "state": "Kuala Lumpur" },
  { "postcode": "50990", "city": "Kuala Lumpur", "state": "Kuala Lumpur" }
]
