[
  { "postcode": "55000", "city": "Kuala Lumpur", "state": "Kuala Lumpur" },
  { "postcode": "55100", "city": "Kuala Lumpur", "state": "Kuala Lumpur" },
  { "postcode": "55188", "city": "Kuala Lumpur", "state": "Kuala Lumpur" },
  { "postcode": "55200", "city": "Kuala Lumpur", "state": "Kuala Lumpur" },
  { "postcode": "55220", "city": "Kuala Lumpur", "state": "Kuala Lumpur" },
  { "postcode": "55300", "city": "Kuala Lumpur", "state": "Kuala Lumpur" },
  { "postcode": "55330", "city": "Kuala Lumpur", "state": "Kuala Lumpur" },
  { "postcode": "55555", "city": "Subang Jaya", "state": "Selangor" },
  { "postcode": "55700", "city": "Kuala Lumpur", "state": "Kuala Lumpur" },
  { "postcode": "55710", "city": "Kuala Lumpur", "state": "Kuala Lumpur" },
  { "postcode": "55720", "city": "Kuala Lumpur", "state": "Kuala Lumpur" },
  { "postcode": "55900", "city": "Kuala Lumpur", "state": "Kuala Lumpur" },
  { "postcode": "55902", "city": "Kuala Lumpur", "state": "Kuala Lumpur" },
  { "postcode": "55904", "city": "Kuala Lumpur", "state": "Kuala Lumpur" },
  { "postcode": "55906", "city": "Kuala Lumpur", "state": "Kuala Lumpur" },
  { "postcode": "55908", "city": "Kuala Lumpur", "state": "Kuala Lumpur" },
  { "postcode": "55910", "city": "Kuala Lumpur", "state": "Kuala Lumpur" },
  { "postcode": "55912", "city": "Kuala Lumpur", "state": "Kuala Lumpur" },
  { "postcode": "55914", "city": "Kuala Lumpur", "state": "Kuala Lumpur" },
  { "postcode": "55916", "city": "Kuala Lumpur", "state": "Kuala Lumpur" },
  { "postcode": "55918", "city": "Kuala Lumpur", "state": "Kuala Lumpur" },
  { "postcode": "55920", "city": "Kuala Lumpur", "state": "Kuala Lumpur" },
  { "postcode": "55922", "city": "Kuala Lumpur", "state": "Kuala Lumpur" },
  { "postcode": "55924", "city": "Kuala Lumpur", "state": "Kuala Lumpur" },
  { "postcode": "55926", "city": "Kuala Lumpur", "state": "Kuala Lumpur" },
  { "postcode": "55928", "city": "Kuala Lumpur", "state": "Kuala Lumpur" },
  { "postcode": "55930", "city": "Kuala Lumpur", "state": "Kuala Lumpur" },
  { "postcode": "55932", "city": "Kuala Lumpur", "state": "Kuala Lumpur" },
  { "postcode": "55934", "city": "Kuala Lumpur", "state": "Kuala Lumpur" },
  { "postcode": "55990", "city": "Kuala Lumpur", "state": "Kuala Lumpur" }
]
