[
  { "postcode": "62000", "city": "Putrajaya", "state": "Putrajaya" },
  { "postcode": "62007", "city": "Putrajaya", "state": "Putrajaya" },
  { "postcode": "62050", "city": "Putrajaya", "state": "Putrajaya" },
  { "postcode": "62052", "city": "Putrajaya", "state": "Putrajaya" },
  { "postcode": "62100", "city": "Putrajaya", "state": "Putrajaya" },
  { "postcode": "62150", "city": "Putrajaya", "state": "Putrajaya" },
  { "postcode": "62200", "city": "Putrajaya", "state": "Putrajaya" },
  { "postcode": "62250", "city": "Putrajaya", "state": "Putrajaya" },
  { "postcode": "62300", "city": "Putrajaya", "state": "Putrajaya" },
  { "postcode": "62500", "city": "Putrajaya", "state": "Putrajaya" },
  { "postcode": "62502", "city": "Putrajaya", "state": "Putrajaya" },
  { "postcode": "62503", "city": "Putrajaya", "state": "Putrajaya" },
  { "postcode": "62504", "city": "Putrajaya", "state": "Putrajaya" },
  { "postcode": "62505", "city": "Putrajaya", "state": "Putrajaya" },
  { "postcode": "62506", "city": "Putrajaya", "state": "Putrajaya" },
  { "postcode": "62510", "city": "Putrajaya", "state": "Putrajaya" },
  { "postcode": "62512", "city": "Putrajaya", "state": "Putrajaya" },
  { "postcode": "62514", "city": "Putrajaya", "state": "Putrajaya" },
  { "postcode": "62516", "city": "Putrajaya", "state": "Putrajaya" },
  { "postcode": "62517", "city": "Putrajaya", "state": "Putrajaya" },
  { "postcode": "62518", "city": "Putrajaya", "state": "Putrajaya" },
  { "postcode": "62519", "city": "Putrajaya", "state": "Putrajaya" },
  { "postcode": "62520", "city": "Putrajaya", "state": "Putrajaya" },
  { "postcode": "62522", "city": "Putrajaya", "state": "Putrajaya" },
  { "postcode": "62524", "city": "Putrajaya", "state": "Putrajaya" },
  { "postcode": "62526", "city": "Putrajaya", "state": "Putrajaya" },
  { "postcode": "62527", "city": "Putrajaya", "state": "Putrajaya" },
  { "postcode": "62529", "city": "Putrajaya", "state": "Putrajaya" },
  { "postcode": "62530", "city": "Putrajaya", "state": "Putrajaya" },
  { "postcode": "62532", "city": "Putrajaya", "state": "Putrajaya" },
  { "postcode": "62536", "city": "Putrajaya", "state": "Putrajaya" },
  { "postcode": "62539", "city": "Putrajaya", "state": "Putrajaya" },
  { "postcode": "62540", "city": "Putrajaya", "state": "Putrajaya" },
  { "postcode": "62542", "city": "Putrajaya", "state": "Putrajaya" },
  { "postcode": "62546", "city": "Putrajaya", "state": "Putrajaya" },
  { "postcode": "62550", "city": "Putrajaya", "state": "Putrajaya" },
  { "postcode": "62551", "city": "Putrajaya", "state": "Putrajaya" },
  { "postcode": "62570", "city": "Putrajaya", "state": "Putrajaya" },
  { "postcode": "62574", "city": "Putrajaya", "state": "Putrajaya" },
  { "postcode": "62576", "city": "Putrajaya", "state": "Putrajaya" },
  { "postcode": "62578", "city": "Putrajaya", "state": "Putrajaya" },
  { "postcode": "62582", "city": "Putrajaya", "state": "Putrajaya" },
  { "postcode": "62584", "city": "Putrajaya", "state": "Putrajaya" },
  { "postcode": "62590", "city": "Putrajaya", "state": "Putrajaya" },
  { "postcode": "62592", "city": "Putrajaya", "state": "Putrajaya" },
  { "postcode": "62594", "city": "Putrajaya", "state": "Putrajaya" },
  { "postcode": "62596", "city": "Putrajaya", "state": "Putrajaya" },
  { "postcode": "62602", "city": "Putrajaya", "state": "Putrajaya" },
  { "postcode": "62604", "city": "Putrajaya", "state": "Putrajaya" },
  { "postcode": "62605", "city": "Putrajaya", "state": "Putrajaya" },
  { "postcode": "62606", "city": "Putrajaya", "state": "Putrajaya" },
  { "postcode": "62616", "city": "Putrajaya", "state": "Putrajaya" },
  { "postcode": "62618", "city": "Putrajaya", "state": "Putrajaya" },
  { "postcode": "62620", "city": "Putrajaya", "state": "Putrajaya" },
  { "postcode": "62623", "city": "Putrajaya", "state": "Putrajaya" },
  { "postcode": "62624", "city": "Putrajaya", "state": "Putrajaya" },
  { "postcode": "62628", "city": "Putrajaya", "state": "Putrajaya" },
  { "postcode": "62630", "city": "Putrajaya", "state": "Putrajaya" },
  { "postcode": "62632", "city": "Putrajaya", "state": "Putrajaya" },
  { "postcode": "62648", "city": "Putrajaya", "state": "Putrajaya" },
  { "postcode": "62652", "city": "Putrajaya", "state": "Putrajaya" },
  { "postcode": "62654", "city": "Putrajaya", "state": "Putrajaya" },
  { "postcode": "62657", "city": "Putrajaya", "state": "Putrajaya" },
  { "postcode": "62662", "city": "Putrajaya", "state": "Putrajaya" },
  { "postcode": "62668", "city": "Putrajaya", "state": "Putrajaya" },
  { "postcode": "62670", "city": "Putrajaya", "state": "Putrajaya" },
  { "postcode": "62674", "city": "Putrajaya", "state": "Putrajaya" },
  { "postcode": "62675", "city": "Putrajaya", "state": "Putrajaya" },
  { "postcode": "62676", "city": "Putrajaya", "state": "Putrajaya" },
  { "postcode": "62677", "city": "Putrajaya", "state": "Putrajaya" },
  { "postcode": "62686", "city": "Putrajaya", "state": "Putrajaya" },
  { "postcode": "62690", "city": "Putrajaya", "state": "Putrajaya" },
  { "postcode": "62692", "city": "Putrajaya", "state": "Putrajaya" },
  { "postcode": "62988", "city": "Putrajaya", "state": "Putrajaya" }
]
