[
  { "postcode": "70000", "city": "Seremban", "state": "Negeri Sembilan" },
  { "postcode": "70100", "city": "Seremban", "state": "Negeri Sembilan" },
  { "postcode": "70200", "city": "Seremban", "state": "Negeri Sembilan" },
  { "postcode": "70300", "city": "Seremban", "state": "Negeri Sembilan" },
  { "postcode": "70400", "city": "Seremban", "state": "Negeri Sembilan" },
  { "postcode": "70450", "city": "Seremban", "state": "Negeri Sembilan" },
  { "postcode": "70500", "city": "Seremban", "state": "Negeri Sembilan" },
  { "postcode": "70502", "city": "Seremban", "state": "Negeri Sembilan" },
  { "postcode": "70503", "city": "Seremban", "state": "Negeri Sembilan" },
  { "postcode": "70504", "city": "Seremban", "state": "Negeri Sembilan" },
  { "postcode": "70505", "city": "Seremban", "state": "Negeri Sembilan" },
  { "postcode": "70506", "city": "Seremban", "state": "Negeri Sembilan" },
  { "postcode": "70508", "city": "Seremban", "state": "Negeri Sembilan" },
  { "postcode": "70512", "city": "Seremban", "state": "Negeri Sembilan" },
  { "postcode": "70516", "city": "Seremban", "state": "Negeri Sembilan" },
  { "postcode": "70517", "city": "Seremban", "state": "Negeri Sembilan" },
  { "postcode": "70518", "city": "Seremban", "state": "Negeri Sembilan" },
  { "postcode": "70532", "city": "Seremban", "state": "Negeri Sembilan" },
  { "postcode": "70534", "city": "Seremban", "state": "Negeri Sembilan" },
  { "postcode": "70536", "city": "Seremban", "state": "Negeri Sembilan" },
  { "postcode": "70540", "city": "Seremban", "state": "Negeri Sembilan" },
  { "postcode": "70546", "city": "Seremban", "state": "Negeri Sembilan" },
  { "postcode": "70548", "city": "Seremban", "state": "Negeri Sembilan" },
  { "postcode": "70550", "city": "Seremban", "state": "Negeri Sembilan" },
  { "postcode": "70551", "city": "Seremban", "state": "Negeri Sembilan" },
  { "postcode": "70558", "city": "Seremban", "state": "Negeri Sembilan" },
  { "postcode": "70560", "city": "Seremban", "state": "Negeri Sembilan" },
  { "postcode": "70564", "city": "Seremban", "state": "Negeri Sembilan" },
  { "postcode": "70570", "city": "Seremban", "state": "Negeri Sembilan" },
  { "postcode": "70572", "city": "Seremban", "state": "Negeri Sembilan" },
  { "postcode": "70576", "city": "Seremban", "state": "Negeri Sembilan" },
  { "postcode": "70578", "city": "Seremban", "state": "Negeri Sembilan" },
  { "postcode": "70582", "city": "Seremban", "state": "Negeri Sembilan" },
  { "postcode": "70586", "city": "Seremban", "state": "Negeri Sembilan" },
  { "postcode": "70590", "city": "Seremban", "state": "Negeri Sembilan" },
  { "postcode": "70592", "city": "Seremban", "state": "Negeri Sembilan" },
  { "postcode": "70594", "city": "Seremban", "state": "Negeri Sembilan" },
  { "postcode": "70596", "city": "Seremban", "state": "Negeri Sembilan" },
  { "postcode": "70600", "city": "Seremban", "state": "Negeri Sembilan" },
  { "postcode": "70604", "city": "Seremban", "state": "Negeri Sembilan" },
  { "postcode": "70606", "city": "Seremban", "state": "Negeri Sembilan" },
  { "postcode": "70608", "city": "Seremban", "state": "Negeri Sembilan" },
  { "postcode": "70609", "city": "Seremban", "state": "Negeri Sembilan" },
  { "postcode": "70610", "city": "Seremban", "state": "Negeri Sembilan" },
  { "postcode": "70620", "city": "Seremban", "state": "Negeri Sembilan" },
  { "postcode": "70626", "city": "Seremban", "state": "Negeri Sembilan" },
  { "postcode": "70628", "city": "Seremban", "state": "Negeri Sembilan" },
  { "postcode": "70632", "city": "Seremban", "state": "Negeri Sembilan" },
  { "postcode": "70634", "city": "Seremban", "state": "Negeri Sembilan" },
  { "postcode": "70644", "city": "Seremban", "state": "Negeri Sembilan" },
  { "postcode": "70646", "city": "Seremban", "state": "Negeri Sembilan" },
  { "postcode": "70648", "city": "Seremban", "state": "Negeri Sembilan" },
  { "postcode": "70658", "city": "Seremban", "state": "Negeri Sembilan" },
  { "postcode": "70664", "city": "Seremban", "state": "Negeri Sembilan" },
  { "postcode": "70670", "city": "Seremban", "state": "Negeri Sembilan" },
  { "postcode": "70672", "city": "Seremban", "state": "Negeri Sembilan" },
  { "postcode": "70673", "city": "Seremban", "state": "Negeri Sembilan" },
  { "postcode": "70674", "city": "Seremban", "state": "Negeri Sembilan" },
  { "postcode": "70676", "city": "Seremban", "state": "Negeri Sembilan" },
  { "postcode": "70690", "city": "Seremban", "state": "Negeri Sembilan" },
  { "postcode": "70700", "city": "Seremban", "state": "Negeri Sembilan" },
  { "postcode": "70710", "city": "Seremban", "state": "Negeri Sembilan" },
  { "postcode": "70720", "city": "Seremban", "state": "Negeri Sembilan" },
  { "postcode": "70730", "city": "Seremban", "state": "Negeri Sembilan" },
  { "postcode": "70740", "city": "Seremban", "state": "Negeri Sembilan" },
  { "postcode": "70750", "city": "Seremban", "state": "Negeri Sembilan" },
  { "postcode": "70990", "city": "Seremban", "state": "Negeri Sembilan" }
]
