[
  { "postcode": "72000", "city": "Kuala Pilah", "state": "Negeri Sembilan" },
  { "postcode": "72007", "city": "Kuala Pilah", "state": "Negeri Sembilan" },
  { "postcode": "72009", "city": "Kuala Pilah", "state": "Negeri Sembilan" },
  { "postcode": "72100", "city": "Bahau", "state": "Negeri Sembilan" },
  { "postcode": "72107", "city": "Bahau", "state": "Negeri Sembilan" },
  { "postcode": "72109", "city": "Bahau", "state": "Negeri Sembilan" },
  { "postcode": "72120", "city": "Bandar Seri Jempol", "state": "Negeri Sembilan" },
  { "postcode": "72127", "city": "Bandar Seri Jempol", "state": "Negeri Sembilan" },
  { "postcode": "72129", "city": "Bandar Seri Jempol", "state": "Negeri Sembilan" },
  { "postcode": "72130", "city": "Bandar Baru Serting", "state": "Negeri Sembilan" },
  { "postcode": "72200", "city": "Batu Kikir", "state": "Negeri Sembilan" },
  { "postcode": "72207", "city": "Batu Kikir", "state": "Negeri Sembilan" },
  { "postcode": "72209", "city": "Batu Kikir", "state": "Negeri Sembilan" },
  { "postcode": "72300", "city": "Simpang Pertang", "state": "Negeri Sembilan" },
  { "postcode": "72307", "city": "Simpang Pertang", "state": "Negeri Sembilan" },
  { "postcode": "72309", "city": "Simpang Pertang", "state": "Negeri Sembilan" },
  { "postcode": "72400", "city": "Simpang Durian", "state": "Negeri Sembilan" },
  { "postcode": "72409", "city": "Simpang Durian", "state": "Negeri Sembilan" },
  { "postcode": "72500", "city": "Kuala Pilah", "state": "Negeri Sembilan" },
  { "postcode": "72507", "city": "Kuala Pilah", "state": "Negeri Sembilan" },
  { "postcode": "72509", "city": "Kuala Pilah", "state": "Negeri Sembilan" }
]
