[
  { "postcode": "73000", "city": "Tampin", "state": "Negeri Sembilan" },
  { "postcode": "73007", "city": "Tampin", "state": "Negeri Sembilan" },
  { "postcode": "73009", "city": "Tampin", "state": "Negeri Sembilan" },
  { "postcode": "73100", "city": "Johol", "state": "Negeri Sembilan" },
  { "postcode": "73109", "city": "Johol", "state": "Negeri Sembilan" },
  { "postcode": "73200", "city": "Gemencheh", "state": "Negeri Sembilan" },
  { "postcode": "73207", "city": "Gemencheh", "state": "Negeri Sembilan" },
  { "postcode": "73209", "city": "Gemencheh", "state": "Negeri Sembilan" },
  { "postcode": "73300", "city": "Gemencheh", "state": "Negeri Sembilan" },
  { "postcode": "73309", "city": "Gemencheh", "state": "Negeri Sembilan" },
  { "postcode": "73400", "city": "Gemas", "state": "Negeri Sembilan" },
  { "postcode": "73409", "city": "Gemas", "state": "Negeri Sembilan" },
  { "postcode": "73410", "city": "Gemas", "state": "Negeri Sembilan" },
  { "postcode": "73420", "city": "Gemas", "state": "Negeri Sembilan" },
  { "postcode": "73430", "city": "Pusat Bandar Palong", "state": "Negeri Sembilan" },
  { "postcode": "73440", "city": "Pusat Bandar Palong", "state": "Negeri Sembilan" },
  { "postcode": "73450", "city": "Pusat Bandar Palong", "state": "Negeri Sembilan" },
  { "postcode": "73460", "city": "Pusat Bandar Palong", "state": "Negeri Sembilan" },
  { "postcode": "73470", "city": "Pusat Bandar Palong", "state": "Negeri Sembilan" },
  { "postcode": "73480", "city": "Gemas", "state": "Negeri Sembilan" },
  { "postcode": "73500", "city": "Rompin", "state": "Negeri Sembilan" },
  { "postcode": "73507", "city": "Rompin", "state": "Negeri Sembilan" },
  { "postcode": "73509", "city": "Rompin", "state": "Negeri Sembilan" }
]
