[
  { "postcode": "80000", "city": "Johor Bahru", "state": "Johor" },
  { "postcode": "80050", "city": "Johor Bahru", "state": "Johor" },
  { "postcode": "80100", "city": "Johor Bahru", "state": "Johor" },
  { "postcode": "80110", "city": "Johor Bahru", "state": "Johor" },
  { "postcode": "80150", "city": "Johor Bahru", "state": "Johor" },
  { "postcode": "80200", "city": "Johor Bahru", "state": "Johor" },
  { "postcode": "80250", "city": "Johor Bahru", "state": "Johor" },
  { "postcode": "80300", "city": "Johor Bahru", "state": "Johor" },
  { "postcode": "80350", "city": "Johor Bahru", "state": "Johor" },
  { "postcode": "80400", "city": "Johor Bahru", "state": "Johor" },
  { "postcode": "80500", "city": "Johor Bahru", "state": "Johor" },
  { "postcode": "80502", "city": "Johor Bahru", "state": "Johor" },
  { "postcode": "80503", "city": "Johor Bahru", "state": "Johor" },
  { "postcode": "80504", "city": "Johor Bahru", "state": "Johor" },
  { "postcode": "80505", "city": "Johor Bahru", "state": "Johor" },
  { "postcode": "80506", "city": "Johor Bahru", "state": "Johor" },
  { "postcode": "80508", "city": "Johor Bahru", "state": "Johor" },
  { "postcode": "80514", "city": "Johor Bahru", "state": "Johor" },
  { "postcode": "80516", "city": "Johor Bahru", "state": "Johor" },
  { "postcode": "80517", "city": "Johor Bahru", "state": "Johor" },
  { "postcode": "80518", "city": "Johor Bahru", "state": "Johor" },
  { "postcode": "80519", "city": "Johor Bahru", "state": "Johor" },
  { "postcode": "80520", "city": "Johor Bahru", "state": "Johor" },
  { "postcode": "80529", "city": "Johor Bahru", "state": "Johor" },
  { "postcode": "80530", "city": "Johor Bahru", "state": "Johor" },
  { "postcode": "80532", "city": "Johor Bahru", "state": "Johor" },
  { "postcode": "80534", "city": "Johor Bahru", "state": "Johor" },
  { "postcode": "80536", "city": "Johor Bahru", "state": "Johor" },
  { "postcode": "80538", "city": "Johor Bahru", "state": "Johor" },
  { "postcode": "80540", "city": "Johor Bahru", "state": "Johor" },
  { "postcode": "80542", "city": "Johor Bahru", "state": "Johor" },
  { "postcode": "80546", "city": "Johor Bahru", "state": "Johor" },
  { "postcode": "80548", "city": "Johor Bahru", "state": "Johor" },
  { "postcode": "80550", "city": "Johor Bahru", "state": "Johor" },
  { "postcode": "80552", "city": "Johor Bahru", "state": "Johor" },
  { "postcode": "80558", "city": "Johor Bahru", "state": "Johor" },
  { "postcode": "80560", "city": "Johor Bahru", "state": "Johor" },
  { "postcode": "80564", "city": "Johor Bahru", "state": "Johor" },
  { "postcode": "80568", "city": "Johor Bahru", "state": "Johor" },
  { "postcode": "80570", "city": "Johor Bahru", "state": "Johor" },
  { "postcode": "80576", "city": "Johor Bahru", "state": "Johor" },
  { "postcode": "80578", "city": "Johor Bahru", "state": "Johor" },
  { "postcode": "80584", "city": "Johor Bahru", "state": "Johor" },
  { "postcode": "80586", "city": "Johor Bahru", "state": "Johor" },
  { "postcode": "80590", "city": "Johor Bahru", "state": "Johor" },
  { "postcode": "80592", "city": "Johor Bahru", "state": "Johor" },
  { "postcode": "80594", "city": "Johor Bahru", "state": "Johor" },
  { "postcode": "80596", "city": "Johor Bahru", "state": "Johor" },
  { "postcode": "80600", "city": "Johor Bahru", "state": "Johor" },
  { "postcode": "80604", "city": "Johor Bahru", "state": "Johor" },
  { "postcode": "80606", "city": "Johor Bahru", "state": "Johor" },
  { "postcode": "80608", "city": "Johor Bahru", "state": "Johor" },
  { "postcode": "80610", "city": "Johor Bahru", "state": "Johor" },
  { "postcode": "80612", "city": "Johor Bahru", "state": "Johor" },
  { "postcode": "80620", "city": "Johor Bahru", "state": "Johor" },
  { "postcode": "80622", "city": "Johor Bahru", "state": "Johor" },
  { "postcode": "80626", "city": "Johor Bahru", "state": "Johor" },
  { "postcode": "80628", "city": "Johor Bahru", "state": "Johor" },
  { "postcode": "80630", "city": "Johor Bahru", "state": "Johor" },
  { "postcode": "80632", "city": "Johor Bahru", "state": "Johor" },
  { "postcode": "80644", "city": "Johor Bahru", "state": "Johor" },
  { "postcode": "80646", "city": "Johor Bahru", "state": "Johor" },
  { "postcode": "80648", "city": "Johor Bahru", "state": "Johor" },
  { "postcode": "80658", "city": "Johor Bahru", "state": "Johor" },
  { "postcode": "80660", "city": "Johor Bahru", "state": "Johor" },
  { "postcode": "80662", "city": "Johor Bahru", "state": "Johor" },
  { "postcode": "80664", "city": "Johor Bahru", "state": "Johor" },
  { "postcode": "80668", "city": "Johor Bahru", "state": "Johor" },
  { "postcode": "80670", "city": "Johor Bahru", "state": "Johor" },
  { "postcode": "80672", "city": "Johor Bahru", "state": "Johor" },
  { "postcode": "80673", "city": "Johor Bahru", "state": "Johor" },
  { "postcode": "80676", "city": "Johor Bahru", "state": "Johor" },
  { "postcode": "80700", "city": "Johor Bahru", "state": "Johor" },
  { "postcode": "80710", "city": "Johor Bahru", "state": "Johor" },
  { "postcode": "80720", "city": "Johor Bahru", "state": "Johor" },
  { "postcode": "80730", "city": "Johor Bahru", "state": "Johor" },
  { "postcode": "80750", "city": "Johor Bahru", "state": "Johor" },
  { "postcode": "80800", "city": "Johor Bahru", "state": "Johor" },
  { "postcode": "80900", "city": "Johor Bahru", "state": "Johor" },
  { "postcode": "80902", "city": "Johor Bahru", "state": "Johor" },
  { "postcode": "80904", "city": "Johor Bahru", "state": "Johor" },
  { "postcode": "80906", "city": "Johor Bahru", "state": "Johor" },
  { "postcode": "80908", "city": "Johor Bahru", "state": "Johor" },
  { "postcode": "80988", "city": "Johor Bahru", "state": "Johor" },
  { "postcode": "80990", "city": "Johor Bahru", "state": "Johor" }
]
