[
  { "postcode": "81000", "city": "Kulai", "state": "Johor" },
  { "postcode": "81010", "city": "Kulai", "state": "Johor" },
  { "postcode": "81020", "city": "Kulai", "state": "Johor" },
  { "postcode": "81030", "city": "Kulai", "state": "Johor" },
  { "postcode": "81040", "city": "Kulai", "state": "Johor" },
  { "postcode": "81050", "city": "Kulai", "state": "Johor" },
  { "postcode": "81100", "city": "Johor Bahru", "state": "Johor" },
  { "postcode": "81110", "city": "Johor Bahru", "state": "Johor" },
  { "postcode": "81120", "city": "Johor Bahru", "state": "Johor" },
  { "postcode": "81200", "city": "Johor Bahru", "state": "Johor" },
  { "postcode": "81250", "city": "Johor Bahru", "state": "Johor" },
  { "postcode": "81300", "city": "Johor Bahru", "state": "Johor" },
  { "postcode": "81310", "city": "Johor Bahru", "state": "Johor" },
  { "postcode": "81400", "city": "Senai", "state": "Johor" },
  { "postcode": "81410", "city": "Senai", "state": "Johor" },
  { "postcode": "81440", "city": "Bandar Tenggara", "state": "Johor" },
  { "postcode": "81450", "city": "Gugusan Taib Andak", "state": "Johor" },
  { "postcode": "81500", "city": "Pekan Nenas", "state": "Johor" },
  { "postcode": "81550", "city": "Gelang Patah", "state": "Johor" },
  { "postcode": "81560", "city": "Gelang Patah", "state": "Johor" },
  { "postcode": "81600", "city": "Pengerang", "state": "Johor" },
  { "postcode": "81620", "city": "Pengerang", "state": "Johor" },
  { "postcode": "81650", "city": "Pengerang", "state": "Johor" },
  { "postcode": "81700", "city": "Pasir Gudang", "state": "Johor" },
  { "postcode": "81750", "city": "Masai", "state": "Johor" },
  { "postcode": "81760", "city": "Masai", "state": "Johor" },
  { "postcode": "81800", "city": "Ulu Tiram", "state": "Johor" },
  { "postcode": "81810", "city": "Ulu Tiram", "state": "Johor" },
  { "postcode": "81850", "city": "Layang-Layang", "state": "Johor" },
  { "postcode": "81900", "city": "Kota Tinggi", "state": "Johor" },
  { "postcode": "81907", "city": "Kota Tinggi", "state": "Johor" },
  { "postcode": "81910", "city": "Kota Tinggi", "state": "Johor" },
  { "postcode": "81920", "city": "Ayer Tawar 2", "state": "Johor" },
  { "postcode": "81930", "city": "Bandar Penawar", "state": "Johor" },
  { "postcode": "81960", "city": "Bandar Penawar", "state": "Johor" }
]
