[
  { "postcode": "84000", "city": "Muar", "state": "Johor" },
  { "postcode": "84007", "city": "Muar", "state": "Johor" },
  { "postcode": "84010", "city": "Muar", "state": "Johor" },
  { "postcode": "84020", "city": "Muar", "state": "Johor" },
  { "postcode": "84030", "city": "Muar", "state": "Johor" },
  { "postcode": "84040", "city": "Muar", "state": "Johor" },
  { "postcode": "84050", "city": "Muar", "state": "Johor" },
  { "postcode": "84100", "city": "Muar", "state": "Johor" },
  { "postcode": "84150", "city": "Parit Jawa", "state": "Johor" },
  { "postcode": "84160", "city": "Parit Jawa", "state": "Johor" },
  { "postcode": "84200", "city": "Muar", "state": "Johor" },
  { "postcode": "84300", "city": "Bukit Pasir", "state": "Johor" },
  { "postcode": "84300", "city": "Muar", "state": "Johor" },
  { "postcode": "84400", "city": "Sungai Mati", "state": "Johor" },
  { "postcode": "84409", "city": "Sungai Mati", "state": "Johor" },
  { "postcode": "84410", "city": "Muar", "state": "Johor" },
  { "postcode": "84500", "city": "Panchor", "state": "Johor" },
  { "postcode": "84600", "city": "Pagoh", "state": "Johor" },
  { "postcode": "84700", "city": "Gerisek", "state": "Johor" },
  { "postcode": "84710", "city": "Gerisek", "state": "Johor" },
  { "postcode": "84800", "city": "Bukit Gambir", "state": "Johor" },
  { "postcode": "84900", "city": "Tangkak", "state": "Johor" },
  { "postcode": "84990", "city": "Tangkak", "state": "Johor" }
]
