[
  { "postcode": "88000", "city": "Kota Kinabalu", "state": "Sabah" },
  { "postcode": "88100", "city": "Kota Kinabalu", "state": "Sabah" },
  { "postcode": "88110", "city": "Kota Kinabalu", "state": "Sabah" },
  { "postcode": "88150", "city": "Kota Kinabalu", "state": "Sabah" },
  { "postcode": "88200", "city": "Kota Kinabalu", "state": "Sabah" },
  { "postcode": "88220", "city": "Kota Kinabalu", "state": "Sabah" },
  { "postcode": "88300", "city": "Kota Kinabalu", "state": "Sabah" },
  { "postcode": "88400", "city": "Kota Kinabalu", "state": "Sabah" },
  { "postcode": "88450", "city": "Kota Kinabalu", "state": "Sabah" },
  { "postcode": "88458", "city": "Kota Kinabalu", "state": "Sabah" },
  { "postcode": "88460", "city": "Kota Kinabalu", "state": "Sabah" },
  { "postcode": "88500", "city": "Kota Kinabalu", "state": "Sabah" },
  { "postcode": "88502", "city": "Kota Kinabalu", "state": "Sabah" },
  { "postcode": "88504", "city": "Kota Kinabalu", "state": "Sabah" },
  { "postcode": "88505", "city": "Kota Kinabalu", "state": "Sabah" },
  { "postcode": "88506", "city": "Kota Kinabalu", "state": "Sabah" },
  { "postcode": "88508", "city": "Kota Kinabalu", "state": "Sabah" },
  { "postcode": "88510", "city": "Kota Kinabalu", "state": "Sabah" },
  { "postcode": "88512", "city": "Kota Kinabalu", "state": "Sabah" },
  { "postcode": "88514", "city": "Kota Kinabalu", "state": "Sabah" },
  { "postcode": "88516", "city": "Kota Kinabalu", "state": "Sabah" },
  { "postcode": "88518", "city": "Kota Kinabalu", "state": "Sabah" },
  { "postcode": "88520", "city": "Kota Kinabalu", "state": "Sabah" },
  { "postcode": "88526", "city": "Kota Kinabalu", "state": "Sabah" },
  { "postcode": "88527", "city": "Kota Kinabalu", "state": "Sabah" },
  { "postcode": "88532", "city": "Kota Kinabalu", "state": "Sabah" },
  { "postcode": "88534", "city": "Kota Kinabalu", "state": "Sabah" },
  { "postcode": "88538", "city": "Kota Kinabalu", "state": "Sabah" },
  { "postcode": "88540", "city": "Kota Kinabalu", "state": "Sabah" },
  { "postcode": "88546", "city": "Kota Kinabalu", "state": "Sabah" },
  { "postcode": "88550", "city": "Kota Kinabalu", "state": "Sabah" },
  { "postcode": "88551", "city": "Kota Kinabalu", "state": "Sabah" },
  { "postcode": "88552", "city": "Kota Kinabalu", "state": "Sabah" },
  { "postcode": "88554", "city": "Kota Kinabalu", "state": "Sabah" },
  { "postcode": "88556", "city": "Kota Kinabalu", "state": "Sabah" },
  { "postcode": "88558", "city": "Kota Kinabalu", "state": "Sabah" },
  { "postcode": "88560", "city": "Kota Kinabalu", "state": "Sabah" },
  { "postcode": "88562", "city": "Kota Kinabalu", "state": "Sabah" },
  { "postcode": "88564", "city": "Kota Kinabalu", "state": "Sabah" },
  { "postcode": "88566", "city": "Kota Kinabalu", "state": "Sabah" },
  { "postcode": "88568", "city": "Kota Kinabalu", "state": "Sabah" },
  { "postcode": "88570", "city": "Kota Kinabalu", "state": "Sabah" },
  { "postcode": "88572", "city": "Kota Kinabalu", "state": "Sabah" },
  { "postcode": "88576", "city": "Kota Kinabalu", "state": "Sabah" },
  { "postcode": "88580", "city": "Kota Kinabalu", "state": "Sabah" },
  { "postcode": "88582", "city": "Kota Kinabalu", "state": "Sabah" },
  { "postcode": "88586", "city": "Kota Kinabalu", "state": "Sabah" },
  { "postcode": "88590", "city": "Kota Kinabalu", "state": "Sabah" },
  { "postcode": "88592", "city": "Kota Kinabalu", "state": "Sabah" },
  { "postcode": "88594", "city": "Kota Kinabalu", "state": "Sabah" },
  { "postcode": "88596", "city": "Kota Kinabalu", "state": "Sabah" },
  { "postcode": "88598", "city": "Kota Kinabalu", "state": "Sabah" },
  { "postcode": "88600", "city": "Kota Kinabalu", "state": "Sabah" },
  { "postcode": "88602", "city": "Kota Kinabalu", "state": "Sabah" },
  { "postcode": "88604", "city": "Kota Kinabalu", "state": "Sabah" },
  { "postcode": "88606", "city": "Kota Kinabalu", "state": "Sabah" },
  { "postcode": "88608", "city": "Kota Kinabalu", "state": "Sabah" },
  { "postcode": "88609", "city": "Kota Kinabalu", "state": "Sabah" },
  { "postcode": "88610", "city": "Kota Kinabalu", "state": "Sabah" },
  { "postcode": "88612", "city": "Kota Kinabalu", "state": "Sabah" },
  { "postcode": "88614", "city": "Kota Kinabalu", "state": "Sabah" },
  { "postcode": "88617", "city": "Kota Kinabalu", "state": "Sabah" },
  { "postcode": "88618", "city": "Kota Kinabalu", "state": "Sabah" },
  { "postcode": "88620", "city": "Kota Kinabalu", "state": "Sabah" },
  { "postcode": "88621", "city": "Kota Kinabalu", "state": "Sabah" },
  { "postcode": "88622", "city": "Kota Kinabalu", "state": "Sabah" },
  { "postcode": "88624", "city": "Kota Kinabalu", "state": "Sabah" },
  { "postcode": "88626", "city": "Kota Kinabalu", "state": "Sabah" },
  { "postcode": "88628", "city": "Kota Kinabalu", "state": "Sabah" },
  { "postcode": "88630", "city": "Kota Kinabalu", "state": "Sabah" },
  { "postcode": "88632", "city": "Kota Kinabalu", "state": "Sabah" },
  { "postcode": "88634", "city": "Kota Kinabalu", "state": "Sabah" },
  { "postcode": "88644", "city": "Kota Kinabalu", "state": "Sabah" },
  { "postcode": "88646", "city": "Kota Kinabalu", "state": "Sabah" },
  { "postcode": "88648", "city": "Kota Kinabalu", "state": "Sabah" },
  { "postcode": "88656", "city": "Kota Kinabalu", "state": "Sabah" },
  { "postcode": "88658", "city": "Kota Kinabalu", "state": "Sabah" },
  { "postcode": "88660", "city": "Kota Kinabalu", "state": "Sabah" },
  { "postcode": "88661", "city": "Kota Kinabalu", "state": "Sabah" },
  { "postcode": "88662", "city": "Kota Kinabalu", "state": "Sabah" },
  { "postcode": "88670", "city": "Kota Kinabalu", "state": "Sabah" },
  { "postcode": "88672", "city": "Kota Kinabalu", "state": "Sabah" },
  { "postcode": "88673", "city": "Kota Kinabalu", "state": "Sabah" },
  { "postcode": "88675", "city": "Kota Kinabalu", "state": "Sabah" },
  { "postcode": "88676", "city": "Kota Kinabalu", "state": "Sabah" },
  { "postcode": "88680", "city": "Kota Kinabalu", "state": "Sabah" },
  { "postcode": "88690", "city": "Kota Kinabalu", "state": "Sabah" },
  { "postcode": "88700", "city": "Beverly", "state": "Sabah" },
  { "postcode": "88721", "city": "Putatan", "state": "Sabah" },
  { "postcode": "88722", "city": "Putatan", "state": "Sabah" },
  { "postcode": "88723", "city": "Putatan", "state": "Sabah" },
  { "postcode": "88724", "city": "Putatan", "state": "Sabah" },
  { "postcode": "88725", "city": "Putatan", "state": "Sabah" },
  { "postcode": "88740", "city": "Kota Kinabalu", "state": "Sabah" },
  { "postcode": "88757", "city": "Kota Kinabalu", "state": "Sabah" },
  { "postcode": "88758", "city": "Kota Kinabalu", "state": "Sabah" },
  { "postcode": "88759", "city": "Kota Kinabalu", "state": "Sabah" },
  { "postcode": "88760", "city": "Kota Kinabalu", "state": "Sabah" },
  { "postcode": "88761", "city": "Kota Kinabalu", "state": "Sabah" },
  { "postcode": "88762", "city": "Kota Kinabalu", "state": "Sabah" },
  { "postcode": "88763", "city": "Kota Kinabalu", "state": "Sabah" },
  { "postcode": "88764", "city": "Kota Kinabalu", "state": "Sabah" },
  { "postcode": "88765", "city": "Kota Kinabalu", "state": "Sabah" },
  { "postcode": "88766", "city": "Kota Kinabalu", "state": "Sabah" },
  { "postcode": "88767", "city": "Kota Kinabalu", "state": "Sabah" },
  { "postcode": "88768", "city": "Kota Kinabalu", "state": "Sabah" },
  { "postcode": "88769", "city": "Kota Kinabalu", "state": "Sabah" },
  { "postcode": "88770", "city": "Kota Kinabalu", "state": "Sabah" },
  { "postcode": "88771", "city": "Kota Kinabalu", "state": "Sabah" },
  { "postcode": "88772", "city": "Kota Kinabalu", "state": "Sabah" },
  { "postcode": "88773", "city": "Kota Kinabalu", "state": "Sabah" },
  { "postcode": "88774", "city": "Kota Kinabalu", "state": "Sabah" },
  { "postcode": "88775", "city": "Kota Kinabalu", "state": "Sabah" },
  { "postcode": "88776", "city": "Kota Kinabalu", "state": "Sabah" },
  { "postcode": "88777", "city": "Kota Kinabalu", "state": "Sabah" },
  { "postcode": "88778", "city": "Kota Kinabalu", "state": "Sabah" },
  { "postcode": "88779", "city": "Kota Kinabalu", "state": "Sabah" },
  { "postcode": "88780", "city": "Kota Kinabalu", "state": "Sabah" },
  { "postcode": "88781", "city": "Kota Kinabalu", "state": "Sabah" },
  { "postcode": "88782", "city": "Kota Kinabalu", "state": "Sabah" },
  { "postcode": "88783", "city": "Kota Kinabalu", "state": "Sabah" },
  { "postcode": "88784", "city": "Kota Kinabalu", "state": "Sabah" },
  { "postcode": "88785", "city": "Kota Kinabalu", "state": "Sabah" },
  { "postcode": "88786", "city": "Kota Kinabalu", "state": "Sabah" },
  { "postcode": "88787", "city": "Kota Kinabalu", "state": "Sabah" },
  { "postcode": "88788", "city": "Kota Kinabalu", "state": "Sabah" },
  { "postcode": "88789", "city": "Kota Kinabalu", "state": "Sabah" },
  { "postcode": "88790", "city": "Kota Kinabalu", "state": "Sabah" },
  { "postcode": "88800", "city": "Kota Kinabalu", "state": "Sabah" },
  { "postcode": "88801", "city": "Kota Kinabalu", "state": "Sabah" },
  { "postcode": "88802", "city": "Kota Kinabalu", "state": "Sabah" },
  { "postcode": "88803", "city": "Kota Kinabalu", "state": "Sabah" },
  { "postcode": "88804", "city": "Kota Kinabalu", "state": "Sabah" },
  { "postcode": "88805", "city": "Kota Kinabalu", "state": "Sabah" },
  { "postcode": "88806", "city": "Kota Kinabalu", "state": "Sabah" },
  { "postcode": "88807", "city": "Kota Kinabalu", "state": "Sabah" },
  { "postcode": "88808", "city": "Kota Kinabalu", "state": "Sabah" },
  { "postcode": "88809", "city": "Kota Kinabalu", "state": "Sabah" },
  { "postcode": "88810", "city": "Kota Kinabalu", "state": "Sabah" },
  { "postcode": "88811", "city": "Kota Kinabalu", "state": "Sabah" },
  { "postcode": "88812", "city": "Kota Kinabalu", "state": "Sabah" },
  { "postcode": "88813", "city": "Kota Kinabalu", "state": "Sabah" },
  { "postcode": "88814", "city": "Kota Kinabalu", "state": "Sabah" },
  { "postcode": "88815", "city": "Kota Kinabalu", "state": "Sabah" },
  { "postcode": "88816", "city": "Kota Kinabalu", "state": "Sabah" },
  { "postcode": "88817", "city": "Kota Kinabalu", "state": "Sabah" },
  { "postcode": "88818", "city": "Kota Kinabalu", "state": "Sabah" },
  { "postcode": "88819", "city": "Kota Kinabalu", "state": "Sabah" },
  { "postcode": "88820", "city": "Kota Kinabalu", "state": "Sabah" },
  { "postcode": "88821", "city": "Kota Kinabalu", "state": "Sabah" },
  { "postcode": "88822", "city": "Kota Kinabalu", "state": "Sabah" },
  { "postcode": "88823", "city": "Kota Kinabalu", "state": "Sabah" },
  { "postcode": "88824", "city": "Kota Kinabalu", "state": "Sabah" },
  { "postcode": "88825", "city": "Kota Kinabalu", "state": "Sabah" },
  { "postcode": "88826", "city": "Kota Kinabalu", "state": "Sabah" },
  { "postcode": "88827", "city": "Kota Kinabalu", "state": "Sabah" },
  { "postcode": "88828", "city": "Kota Kinabalu", "state": "Sabah" },
  { "postcode": "88829", "city": "Kota Kinabalu", "state": "Sabah" },
  { "postcode": "88830", "city": "Kota Kinabalu", "state": "Sabah" },
  { "postcode": "88831", "city": "Kota Kinabalu", "state": "Sabah" },
  { "postcode": "88832", "city": "Kota Kinabalu", "state": "Sabah" },
  { "postcode": "88833", "city": "Kota Kinabalu", "state": "Sabah" },
  { "postcode": "88834", "city": "Kota Kinabalu", "state": "Sabah" },
  { "postcode": "88835", "city": "Kota Kinabalu", "state": "Sabah" },
  { "postcode": "88836", "city": "Kota Kinabalu", "state": "Sabah" },
  { "postcode": "88837", "city": "Kota Kinabalu", "state": "Sabah" },
  { "postcode": "88838", "city": "Kota Kinabalu", "state": "Sabah" },
  { "postcode": "88839", "city": "Kota Kinabalu", "state": "Sabah" },
  { "postcode": "88840", "city": "Kota Kinabalu", "state": "Sabah" },
  { "postcode": "88841", "city": "Kota Kinabalu", "state": "Sabah" },
  { "postcode": "88842", "city": "Kota Kinabalu", "state": "Sabah" },
  { "postcode": "88843", "city": "Kota Kinabalu", "state": "Sabah" },
  { "postcode": "88844", "city": "Kota Kinabalu", "state": "Sabah" },
  { "postcode": "88845", "city": "Kota Kinabalu", "state": "Sabah" },
  { "postcode": "88846", "city": "Kota Kinabalu", "state": "Sabah" },
  { "postcode": "88847", "city": "Kota Kinabalu", "state": "Sabah" },
  { "postcode": "88848", "city": "Kota Kinabalu", "state": "Sabah" },
  { "postcode": "88849", "city": "Kota Kinabalu", "state": "Sabah" },
  { "postcode": "88850", "city": "Kota Kinabalu", "state": "Sabah" },
  { "postcode": "88851", "city": "Kota Kinabalu", "state": "Sabah" },
  { "postcode": "88852", "city": "Kota Kinabalu", "state": "Sabah" },
  { "postcode": "88853", "city": "Kota Kinabalu", "state": "Sabah" },
  { "postcode": "88854", "city": "Kota Kinabalu", "state": "Sabah" },
  { "postcode": "88855", "city": "Kota Kinabalu", "state": "Sabah" },
  { "postcode": "88856", "city": "Likas", "state": "Sabah" },
  { "postcode": "88857", "city": "Inanam", "state": "Sabah" },
  { "postcode": "88858", "city": "Tanjung Aru", "state": "Sabah" },
  { "postcode": "88860", "city": "Kota Kinabalu", "state": "Sabah" },
  { "postcode": "88861", "city": "Kota Kinabalu", "state": "Sabah" },
  { "postcode": "88862", "city": "Kota Kinabalu", "state": "Sabah" },
  { "postcode": "88863", "city": "Kota Kinabalu", "state": "Sabah" },
  { "postcode": "88865", "city": "Kota Kinabalu", "state": "Sabah" },
  { "postcode": "88866", "city": "Kota Kinabalu", "state": "Sabah" },
  { "postcode": "88867", "city": "Kota Kinabalu", "state": "Sabah" },
  { "postcode": "88868", "city": "Kota Kinabalu", "state": "Sabah" },
  { "postcode": "88869", "city": "Kota Kinabalu", "state": "Sabah" },
  { "postcode": "88870", "city": "Kota Kinabalu", "state": "Sabah" },
  { "postcode": "88871", "city": "Kota Kinabalu", "state": "Sabah" },
  { "postcode": "88872", "city": "Kota Kinabalu", "state": "Sabah" },
  { "postcode": "88873", "city": "Kota Kinabalu", "state": "Sabah" },
  { "postcode": "88874", "city": "Kota Kinabalu", "state": "Sabah" },
  { "postcode": "88875", "city": "Kota Kinabalu", "state": "Sabah" },
  { "postcode": "88900", "city": "Kota Kinabalu", "state": "Sabah" },
  { "postcode": "88901", "city": "Kota Kinabalu", "state": "Sabah" },
  { "postcode": "88902", "city": "Kota Kinabalu", "state": "Sabah" },
  { "postcode": "88903", "city": "Kota Kinabalu", "state": "Sabah" },
  { "postcode": "88904", "city": "Kota Kinabalu", "state": "Sabah" },
  { "postcode": "88905", "city": "Kota Kinabalu", "state": "Sabah" },
  { "postcode": "88906", "city": "Kota Kinabalu", "state": "Sabah" },
  { "postcode": "88988", "city": "Kota Kinabalu", "state": "Sabah" },
  { "postcode": "88990", "city": "Kota Kinabalu", "state": "Sabah" },
  { "postcode": "88991", "city": "Kota Kinabalu", "state": "Sabah" },
  { "postcode": "88992", "city": "Kota Kinabalu", "state": "Sabah" },
  { "postcode": "88993", "city": "Kota Kinabalu", "state": "Sabah" },
  { "postcode": "88994", "city": "Kota Kinabalu", "state": "Sabah" },
  { "postcode": "88995", "city": "Kota Kinabalu", "state": "Sabah" },
  { "postcode": "88996", "city": "Kota Kinabalu", "state": "Sabah" },
  { "postcode": "88997", "city": "Kota Kinabalu", "state": "Sabah" },
  { "postcode": "88998", "city": "Kota Kinabalu", "state": "Sabah" },
  { "postcode": "88999", "city": "Kota Kinabalu", "state": "Sabah" }
]
