[
  { "postcode": "89000", "city": "Keningau", "state": "Sabah" },
  { "postcode": "89007", "city": "Keningau", "state": "Sabah" },
  { "postcode": "89008", "city": "Keningau", "state": "Sabah" },
  { "postcode": "89009", "city": "Keningau", "state": "Sabah" },
  { "postcode": "89050", "city": "Kudat", "state": "Sabah" },
  { "postcode": "89057", "city": "Kudat", "state": "Sabah" },
  { "postcode": "89058", "city": "Kudat", "state": "Sabah" },
  { "postcode": "89059", "city": "Kudat", "state": "Sabah" },
  { "postcode": "89100", "city": "Kota Marudu", "state": "Sabah" },
  { "postcode": "89107", "city": "Kota Marudu", "state": "Sabah" },
  { "postcode": "89108", "city": "Kota Marudu", "state": "Sabah" },
  { "postcode": "89109", "city": "Kota Marudu", "state": "Sabah" },
  { "postcode": "89150", "city": "Kota Belud", "state": "Sabah" },
  { "postcode": "89157", "city": "Kota Belud", "state": "Sabah" },
  { "postcode": "89158", "city": "Kota Belud", "state": "Sabah" },
  { "postcode": "89159", "city": "Kota Belud", "state": "Sabah" },
  { "postcode": "89200", "city": "Tuaran", "state": "Sabah" },
  { "postcode": "89207", "city": "Tuaran", "state": "Sabah" },
  { "postcode": "89208", "city": "Tuaran", "state": "Sabah" },
  { "postcode": "89209", "city": "Tuaran", "state": "Sabah" },
  { "postcode": "89250", "city": "Tamparuli", "state": "Sabah" },
  { "postcode": "89257", "city": "Tamparuli", "state": "Sabah" },
  { "postcode": "89258", "city": "Tamparuli", "state": "Sabah" },
  { "postcode": "89259", "city": "Tamparuli", "state": "Sabah" },
  { "postcode": "89260", "city": "Beverly", "state": "Sabah" },
  { "postcode": "89300", "city": "Ranau", "state": "Sabah" },
  { "postcode": "89307", "city": "Ranau", "state": "Sabah" },
  { "postcode": "89308", "city": "Ranau", "state": "Sabah" },
  { "postcode": "89309", "city": "Ranau", "state": "Sabah" },
  { "postcode": "89320", "city": "Ranau", "state": "Sabah" },
  { "postcode": "89350", "city": "Ranau", "state": "Sabah" },
  { "postcode": "89357", "city": "Ranau", "state": "Sabah" },
  { "postcode": "89500", "city": "Penampang", "state": "Sabah" },
  { "postcode": "89507", "city": "Penampang", "state": "Sabah" },
  { "postcode": "89508", "city": "Penampang", "state": "Sabah" },
  { "postcode": "89509", "city": "Penampang", "state": "Sabah" },
  { "postcode": "89600", "city": "Papar", "state": "Sabah" },
  { "postcode": "89607", "city": "Papar", "state": "Sabah" },
  { "postcode": "89608", "city": "Papar", "state": "Sabah" },
  { "postcode": "89609", "city": "Papar", "state": "Sabah" },
  { "postcode": "89650", "city": "Tambunan", "state": "Sabah" },
  { "postcode": "89657", "city": "Tambunan", "state": "Sabah" },
  { "postcode": "89658", "city": "Tambunan", "state": "Sabah" },
  { "postcode": "89659", "city": "Tambunan", "state": "Sabah" },
  { "postcode": "89700", "city": "Bongawan", "state": "Sabah" },
  { "postcode": "89707", "city": "Bongawan", "state": "Sabah" },
  { "postcode": "89708", "city": "Bongawan", "state": "Sabah" },
  { "postcode": "89709", "city": "Bongawan", "state": "Sabah" },
  { "postcode": "89720", "city": "Membakut", "state": "Sabah" },
  { "postcode": "89727", "city": "Membakut", "state": "Sabah" },
  { "postcode": "89728", "city": "Membakut", "state": "Sabah" },
  { "postcode": "89729", "city": "Membakut", "state": "Sabah" },
  { "postcode": "89740", "city": "Kuala Penyu", "state": "Sabah" },
  { "postcode": "89747", "city": "Kuala Penyu", "state": "Sabah" },
  { "postcode": "89748", "city": "Kuala Penyu", "state": "Sabah" },
  { "postcode": "89749", "city": "Kuala Penyu", "state": "Sabah" },
  { "postcode": "89760", "city": "Menumbok", "state": "Sabah" },
  { "postcode": "89767", "city": "Menumbok", "state": "Sabah" },
  { "postcode": "89768", "city": "Menumbok", "state": "Sabah" },
  { "postcode": "89769", "city": "Menumbok", "state": "Sabah" },
  { "postcode": "89800", "city": "Beaufort", "state": "Sabah" },
  { "postcode": "89807", "city": "Beaufort", "state": "Sabah" },
  { "postcode": "89808", "city": "Beaufort", "state": "Sabah" },
  { "postcode": "89809", "city": "Beaufort", "state": "Sabah" },
  { "postcode": "89850", "city": "Sipitang", "state": "Sabah" },
  { "postcode": "89857", "city": "Sipitang", "state": "Sabah" },
  { "postcode": "89858", "city": "Sipitang", "state": "Sabah" },
  { "postcode": "89859", "city": "Sipitang", "state": "Sabah" },
  { "postcode": "89900", "city": "Tenom", "state": "Sabah" },
  { "postcode": "89907", "city": "Tenom", "state": "Sabah" },
  { "postcode": "89908", "city": "Tenom", "state": "Sabah" },
  { "postcode": "89909", "city": "Tenom", "state": "Sabah" },
  { "postcode": "89950", "city": "Nabawan", "state": "Sabah" },
  { "postcode": "89957", "city": "Nabawan", "state": "Sabah" },
  { "postcode": "89958", "city": "Nabawan", "state": "Sabah" },
  { "postcode": "89959", "city": "Nabawan", "state": "Sabah" }
]
