[
  { "postcode": "90000", "city": "Sandakan", "state": "Sabah" },
  { "postcode": "90008", "city": "Sandakan", "state": "Sabah" },
  { "postcode": "90009", "city": "Sandakan", "state": "Sabah" },
  { "postcode": "90100", "city": "Beluran", "state": "Sabah" },
  { "postcode": "90107", "city": "Beluran", "state": "Sabah" },
  { "postcode": "90109", "city": "Beluran", "state": "Sabah" },
  { "postcode": "90200", "city": "Kota Kinabatangan", "state": "Sabah" },
  { "postcode": "90300", "city": "Sandakan", "state": "Sabah" },
  { "postcode": "90307", "city": "Sandakan", "state": "Sabah" },
  { "postcode": "90400", "city": "Pamol", "state": "Sabah" },
  { "postcode": "90700", "city": "Sandakan", "state": "Sabah" },
  { "postcode": "90701", "city": "Sandakan", "state": "Sabah" },
  { "postcode": "90702", "city": "Sandakan", "state": "Sabah" },
  { "postcode": "90703", "city": "Sandakan", "state": "Sabah" },
  { "postcode": "90704", "city": "Sandakan", "state": "Sabah" },
  { "postcode": "90705", "city": "Sandakan", "state": "Sabah" },
  { "postcode": "90706", "city": "Sandakan", "state": "Sabah" },
  { "postcode": "90707", "city": "Sandakan", "state": "Sabah" },
  { "postcode": "90708", "city": "Sandakan", "state": "Sabah" },
  { "postcode": "90709", "city": "Sandakan", "state": "Sabah" },
  { "postcode": "90711", "city": "Sandakan", "state": "Sabah" },
  { "postcode": "90712", "city": "Sandakan", "state": "Sabah" },
  { "postcode": "90713", "city": "Sandakan", "state": "Sabah" },
  { "postcode": "90714", "city": "Sandakan", "state": "Sabah" },
  { "postcode": "90715", "city": "Sandakan", "state": "Sabah" },
  { "postcode": "90716", "city": "Sandakan", "state": "Sabah" },
  { "postcode": "90717", "city": "Sandakan", "state": "Sabah" },
  { "postcode": "90718", "city": "Sandakan", "state": "Sabah" },
  { "postcode": "90719", "city": "Sandakan", "state": "Sabah" },
  { "postcode": "90720", "city": "Sandakan", "state": "Sabah" },
  { "postcode": "90721", "city": "Sandakan", "state": "Sabah" },
  { "postcode": "90722", "city": "Sandakan", "state": "Sabah" },
  { "postcode": "90723", "city": "Sandakan", "state": "Sabah" },
  { "postcode": "90724", "city": "Sandakan", "state": "Sabah" },
  { "postcode": "90725", "city": "Sandakan", "state": "Sabah" },
  { "postcode": "90726", "city": "Sandakan", "state": "Sabah" },
  { "postcode": "90727", "city": "Sandakan", "state": "Sabah" },
  { "postcode": "90728", "city": "Sandakan", "state": "Sabah" },
  { "postcode": "90729", "city": "Sandakan", "state": "Sabah" },
  { "postcode": "90730", "city": "Sandakan", "state": "Sabah" },
  { "postcode": "90731", "city": "Sandakan", "state": "Sabah" },
  { "postcode": "90732", "city": "Sandakan", "state": "Sabah" },
  { "postcode": "90733", "city": "Sandakan", "state": "Sabah" },
  { "postcode": "90734", "city": "Sandakan", "state": "Sabah" },
  { "postcode": "90735", "city": "Sandakan", "state": "Sabah" },
  { "postcode": "90736", "city": "Sandakan", "state": "Sabah" },
  { "postcode": "90737", "city": "Sandakan", "state": "Sabah" },
  { "postcode": "90738", "city": "Sandakan", "state": "Sabah" },
  { "postcode": "90739", "city": "Sandakan", "state": "Sabah" },
  { "postcode": "90740", "city": "Sandakan", "state": "Sabah" },
  { "postcode": "90741", "city": "Sandakan", "state": "Sabah" }
]
