[
  { "postcode": "91000", "city": "Tawau", "state": "Sabah" },
  { "postcode": "91007", "city": "Tawau", "state": "Sabah" },
  { "postcode": "91008", "city": "Tawau", "state": "Sabah" },
  { "postcode": "91009", "city": "Tawau", "state": "Sabah" },
  { "postcode": "91010", "city": "Tawau", "state": "Sabah" },
  { "postcode": "91011", "city": "Tawau", "state": "Sabah" },
  { "postcode": "91012", "city": "Tawau", "state": "Sabah" },
  { "postcode": "91013", "city": "Tawau", "state": "Sabah" },
  { "postcode": "91014", "city": "Tawau", "state": "Sabah" },
  { "postcode": "91015", "city": "Tawau", "state": "Sabah" },
  { "postcode": "91016", "city": "Tawau", "state": "Sabah" },
  { "postcode": "91017", "city": "Tawau", "state": "Sabah" },
  { "postcode": "91018", "city": "Tawau", "state": "Sabah" },
  { "postcode": "91019", "city": "Tawau", "state": "Sabah" },
  { "postcode": "91020", "city": "Tawau", "state": "Sabah" },
  { "postcode": "91021", "city": "Tawau", "state": "Sabah" },
  { "postcode": "91022", "city": "Tawau", "state": "Sabah" },
  { "postcode": "91023", "city": "Tawau", "state": "Sabah" },
  { "postcode": "91024", "city": "Tawau", "state": "Sabah" },
  { "postcode": "91025", "city": "Tawau", "state": "Sabah" },
  { "postcode": "91026", "city": "Tawau", "state": "Sabah" },
  { "postcode": "91027", "city": "Tawau", "state": "Sabah" },
  { "postcode": "91028", "city": "Tawau", "state": "Sabah" },
  { "postcode": "91029", "city": "Tawau", "state": "Sabah" },
  { "postcode": "91030", "city": "Tawau", "state": "Sabah" },
  { "postcode": "91031", "city": "Tawau", "state": "Sabah" },
  { "postcode": "91032", "city": "Tawau", "state": "Sabah" },
  { "postcode": "91033", "city": "Tawau", "state": "Sabah" },
  { "postcode": "91034", "city": "Tawau", "state": "Sabah" },
  { "postcode": "91035", "city": "Tawau", "state": "Sabah" },
  { "postcode": "91045", "city": "Tawau", "state": "Sabah" },
  { "postcode": "91056", "city": "Tawau", "state": "Sabah" },
  { "postcode": "91100", "city": "Lahad Datu", "state": "Sabah" },
  { "postcode": "91108", "city": "Lahad Datu", "state": "Sabah" },
  { "postcode": "91109", "city": "Lahad Datu", "state": "Sabah" },
  { "postcode": "91110", "city": "Lahad Datu", "state": "Sabah" },
  { "postcode": "91111", "city": "Lahad Datu", "state": "Sabah" },
  { "postcode": "91112", "city": "Lahad Datu", "state": "Sabah" },
  { "postcode": "91113", "city": "Lahad Datu", "state": "Sabah" },
  { "postcode": "91114", "city": "Lahad Datu", "state": "Sabah" },
  { "postcode": "91115", "city": "Lahad Datu", "state": "Sabah" },
  { "postcode": "91116", "city": "Lahad Datu", "state": "Sabah" },
  { "postcode": "91117", "city": "Lahad Datu", "state": "Sabah" },
  { "postcode": "91118", "city": "Lahad Datu", "state": "Sabah" },
  { "postcode": "91119", "city": "Lahad Datu", "state": "Sabah" },
  { "postcode": "91120", "city": "Lahad Datu", "state": "Sabah" },
  { "postcode": "91121", "city": "Lahad Datu", "state": "Sabah" },
  { "postcode": "91122", "city": "Lahad Datu", "state": "Sabah" },
  { "postcode": "91123", "city": "Lahad Datu", "state": "Sabah" },
  { "postcode": "91124", "city": "Lahad Datu", "state": "Sabah" },
  { "postcode": "91125", "city": "Lahad Datu", "state": "Sabah" },
  { "postcode": "91126", "city": "Lahad Datu", "state": "Sabah" },
  { "postcode": "91127", "city": "Lahad Datu", "state": "Sabah" },
  { "postcode": "91128", "city": "Lahad Datu", "state": "Sabah" },
  { "postcode": "91150", "city": "Lahad Datu", "state": "Sabah" },
  { "postcode": "91200", "city": "Kunak", "state": "Sabah" },
  { "postcode": "91207", "city": "Kunak", "state": "Sabah" },
  { "postcode": "91209", "city": "Kunak", "state": "Sabah" },
  { "postcode": "91300", "city": "Semporna", "state": "Sabah" },
  { "postcode": "91307", "city": "Semporna", "state": "Sabah" },
  { "postcode": "91308", "city": "Semporna", "state": "Sabah" },
  { "postcode": "91309", "city": "Semporna", "state": "Sabah" }
]
