[
  { "postcode": "93000", "city": "Kuching", "state": "Sarawak" },
  { "postcode": "93010", "city": "Kuching", "state": "Sarawak" },
  { "postcode": "93030", "city": "Kuching", "state": "Sarawak" },
  { "postcode": "93050", "city": "Kuching", "state": "Sarawak" },
  { "postcode": "93100", "city": "Kuching", "state": "Sarawak" },
  { "postcode": "93150", "city": "Kuching", "state": "Sarawak" },
  { "postcode": "93200", "city": "Kuching", "state": "Sarawak" },
  { "postcode": "93250", "city": "Kuching", "state": "Sarawak" },
  { "postcode": "93300", "city": "Kuching", "state": "Sarawak" },
  { "postcode": "93350", "city": "Kuching", "state": "Sarawak" },
  { "postcode": "93400", "city": "Kuching", "state": "Sarawak" },
  { "postcode": "93450", "city": "Kuching", "state": "Sarawak" },
  { "postcode": "93500", "city": "Kuching", "state": "Sarawak" },
  { "postcode": "93502", "city": "Kuching", "state": "Sarawak" },
  { "postcode": "93503", "city": "Kuching", "state": "Sarawak" },
  { "postcode": "93504", "city": "Kuching", "state": "Sarawak" },
  { "postcode": "93505", "city": "Kuching", "state": "Sarawak" },
  { "postcode": "93506", "city": "Kuching", "state": "Sarawak" },
  { "postcode": "93507", "city": "Kuching", "state": "Sarawak" },
  { "postcode": "93508", "city": "Kuching", "state": "Sarawak" },
  { "postcode": "93514", "city": "Kuching", "state": "Sarawak" },
  { "postcode": "93516", "city": "Kuching", "state": "Sarawak" },
  { "postcode": "93517", "city": "Kuching", "state": "Sarawak" },
  { "postcode": "93518", "city": "Kuching", "state": "Sarawak" },
  { "postcode": "93519", "city": "Kuching", "state": "Sarawak" },
  { "postcode": "93520", "city": "Kuching", "state": "Sarawak" },
  { "postcode": "93527", "city": "Kuching", "state": "Sarawak" },
  { "postcode": "93529", "city": "Kuching", "state": "Sarawak" },
  { "postcode": "93532", "city": "Kuching", "state": "Sarawak" },
  { "postcode": "93540", "city": "Kuching", "state": "Sarawak" },
  { "postcode": "93550", "city": "Kuching", "state": "Sarawak" },
  { "postcode": "93551", "city": "Kuching", "state": "Sarawak" },
  { "postcode": "93552", "city": "Kuching", "state": "Sarawak" },
  { "postcode": "93554", "city": "Kuching", "state": "Sarawak" },
  { "postcode": "93556", "city": "Kuching", "state": "Sarawak" },
  { "postcode": "93558", "city": "Kuching", "state": "Sarawak" },
  { "postcode": "93560", "city": "Kuching", "state": "Sarawak" },
  { "postcode": "93564", "city": "Kuching", "state": "Sarawak" },
  { "postcode": "93566", "city": "Kuching", "state": "Sarawak" },
  { "postcode": "93570", "city": "Kuching", "state": "Sarawak" },
  { "postcode": "93572", "city": "Kuching", "state": "Sarawak" },
  { "postcode": "93576", "city": "Kuching", "state": "Sarawak" },
  { "postcode": "93578", "city": "Kuching", "state": "Sarawak" },
  { "postcode": "93582", "city": "Kuching", "state": "Sarawak" },
  { "postcode": "93586", "city": "Kuching", "state": "Sarawak" },
  { "postcode": "93590", "city": "Kuching", "state": "Sarawak" },
  { "postcode": "93592", "city": "Kuching", "state": "Sarawak" },
  { "postcode": "93594", "city": "Kuching", "state": "Sarawak" },
  { "postcode": "93596", "city": "Kuching", "state": "Sarawak" },
  { "postcode": "93600", "city": "Kuching", "state": "Sarawak" },
  { "postcode": "93604", "city": "Kuching", "state": "Sarawak" },
  { "postcode": "93606", "city": "Kuching", "state": "Sarawak" },
  { "postcode": "93608", "city": "Kuching", "state": "Sarawak" },
  { "postcode": "93609", "city": "Kuching", "state": "Sarawak" },
  { "postcode": "93610", "city": "Kuching", "state": "Sarawak" },
  { "postcode": "93612", "city": "Kuching", "state": "Sarawak" },
  { "postcode": "93614", "city": "Kuching", "state": "Sarawak" },
  { "postcode": "93618", "city": "Kuching", "state": "Sarawak" },
  { "postcode": "93619", "city": "Kuching", "state": "Sarawak" },
  { "postcode": "93620", "city": "Kuching", "state": "Sarawak" },
  { "postcode": "93626", "city": "Kuching", "state": "Sarawak" },
  { "postcode": "93628", "city": "Kuching", "state": "Sarawak" },
  { "postcode": "93632", "city": "Kuching", "state": "Sarawak" },
  { "postcode": "93634", "city": "Kuching", "state": "Sarawak" },
  { "postcode": "93648", "city": "Kuching", "state": "Sarawak" },
  { "postcode": "93658", "city": "Kuching", "state": "Sarawak" },
  { "postcode": "93660", "city": "Kuching", "state": "Sarawak" },
  { "postcode": "93661", "city": "Kuching", "state": "Sarawak" },
  { "postcode": "93662", "city": "Kuching", "state": "Sarawak" },
  { "postcode": "93668", "city": "Kuching", "state": "Sarawak" },
  { "postcode": "93670", "city": "Kuching", "state": "Sarawak" },
  { "postcode": "93672", "city": "Kuching", "state": "Sarawak" },
  { "postcode": "93677", "city": "Kuching", "state": "Sarawak" },
  { "postcode": "93690", "city": "Kuching", "state": "Sarawak" },
  { "postcode": "93694", "city": "Kuching", "state": "Sarawak" },
  { "postcode": "93700", "city": "Kuching", "state": "Sarawak" },
  { "postcode": "93702", "city": "Kuching", "state": "Sarawak" },
  { "postcode": "93704", "city": "Kuching", "state": "Sarawak" },
  { "postcode": "93706", "city": "Kuching", "state": "Sarawak" },
  { "postcode": "93708", "city": "Kuching", "state": "Sarawak" },
  { "postcode": "93710", "city": "Kuching", "state": "Sarawak" },
  { "postcode": "93712", "city": "Kuching", "state": "Sarawak" },
  { "postcode": "93714", "city": "Kuching", "state": "Sarawak" },
  { "postcode": "93716", "city": "Kuching", "state": "Sarawak" },
  { "postcode": "93718", "city": "Kuching", "state": "Sarawak" },
  { "postcode": "93720", "city": "Kuching", "state": "Sarawak" },
  { "postcode": "93722", "city": "Kuching", "state": "Sarawak" },
  { "postcode": "93724", "city": "Kuching", "state": "Sarawak" },
  { "postcode": "93726", "city": "Kuching", "state": "Sarawak" },
  { "postcode": "93728", "city": "Kuching", "state": "Sarawak" },
  { "postcode": "93730", "city": "Kuching", "state": "Sarawak" },
  { "postcode": "93732", "city": "Kuching", "state": "Sarawak" },
  { "postcode": "93734", "city": "Kuching", "state": "Sarawak" },
  { "postcode": "93736", "city": "Kuching", "state": "Sarawak" },
  { "postcode": "93738", "city": "Kuching", "state": "Sarawak" },
  { "postcode": "93740", "city": "Kuching", "state": "Sarawak" },
  { "postcode": "93742", "city": "Kuching", "state": "Sarawak" },
  { "postcode": "93744", "city": "Kuching", "state": "Sarawak" },
  { "postcode": "93746", "city": "Kuching", "state": "Sarawak" },
  { "postcode": "93748", "city": "Kuching", "state": "Sarawak" },
  { "postcode": "93750", "city": "Kuching", "state": "Sarawak" },
  { "postcode": "93752", "city": "Kuching", "state": "Sarawak" },
  { "postcode": "93754", "city": "Kuching", "state": "Sarawak" },
  { "postcode": "93756", "city": "Kuching", "state": "Sarawak" },
  { "postcode": "93758", "city": "Kuching", "state": "Sarawak" },
  { "postcode": "93760", "city": "Kuching", "state": "Sarawak" },
  { "postcode": "93762", "city": "Kuching", "state": "Sarawak" },
  { "postcode": "93764", "city": "Kuching", "state": "Sarawak" },
  { "postcode": "93900", "city": "Kuching", "state": "Sarawak" },
  { "postcode": "93902", "city": "Kuching", "state": "Sarawak" },
  { "postcode": "93904", "city": "Kuching", "state": "Sarawak" },
  { "postcode": "93906", "city": "Kuching", "state": "Sarawak" },
  { "postcode": "93908", "city": "Kuching", "state": "Sarawak" },
  { "postcode": "93910", "city": "Kuching", "state": "Sarawak" },
  { "postcode": "93912", "city": "Kuching", "state": "Sarawak" },
  { "postcode": "93914", "city": "Kuching", "state": "Sarawak" },
  { "postcode": "93916", "city": "Kuching", "state": "Sarawak" },
  { "postcode": "93990", "city": "Kuching", "state": "Sarawak" }
]
