[
  { "postcode": "94000", "city": "Bau", "state": "Sarawak" },
  { "postcode": "94007", "city": "Bau", "state": "Sarawak" },
  { "postcode": "94009", "city": "Bau", "state": "Sarawak" },
  { "postcode": "94200", "city": "Siburan", "state": "Sarawak" },
  { "postcode": "94300", "city": "Kota Samarahan", "state": "Sarawak" },
  { "postcode": "94500", "city": "Lundu", "state": "Sarawak" },
  { "postcode": "94507", "city": "Lundu", "state": "Sarawak" },
  { "postcode": "94509", "city": "Lundu", "state": "Sarawak" },
  { "postcode": "94600", "city": "Asajaya", "state": "Sarawak" },
  { "postcode": "94650", "city": "Kabong", "state": "Sarawak" },
  { "postcode": "94700", "city": "Serian", "state": "Sarawak" },
  { "postcode": "94707", "city": "Serian", "state": "Sarawak" },
  { "postcode": "94709", "city": "Serian", "state": "Sarawak" },
  { "postcode": "94750", "city": "Serian", "state": "Sarawak" },
  { "postcode": "94760", "city": "Serian", "state": "Sarawak" },
  { "postcode": "94800", "city": "Simunjan", "state": "Sarawak" },
  { "postcode": "94807", "city": "Simunjan", "state": "Sarawak" },
  { "postcode": "94809", "city": "Simunjan", "state": "Sarawak" },
  { "postcode": "94850", "city": "Sebuyau", "state": "Sarawak" },
  { "postcode": "94900", "city": "Lingga", "state": "Sarawak" },
  { "postcode": "94950", "city": "Pusa", "state": "Sarawak" }
]
