[
  { "postcode": "96000", "city": "Sibu", "state": "Sarawak" },
  { "postcode": "96007", "city": "Sibu", "state": "Sarawak" },
  { "postcode": "96008", "city": "Sibu", "state": "Sarawak" },
  { "postcode": "96009", "city": "Sibu", "state": "Sarawak" },
  { "postcode": "96100", "city": "Sarikei", "state": "Sarawak" },
  { "postcode": "96107", "city": "Sarikei", "state": "Sarawak" },
  { "postcode": "96108", "city": "Sarikei", "state": "Sarawak" },
  { "postcode": "96109", "city": "Sarikei", "state": "Sarawak" },
  { "postcode": "96150", "city": "Belawai", "state": "Sarawak" },
  { "postcode": "96200", "city": "Daro", "state": "Sarawak" },
  { "postcode": "96250", "city": "Matu", "state": "Sarawak" },
  { "postcode": "96300", "city": "Dalat", "state": "Sarawak" },
  { "postcode": "96307", "city": "Dalat", "state": "Sarawak" },
  { "postcode": "96309", "city": "Dalat", "state": "Sarawak" },
  { "postcode": "96350", "city": "Balingian", "state": "Sarawak" },
  { "postcode": "96400", "city": "Mukah", "state": "Sarawak" },
  { "postcode": "96410", "city": "Mukah", "state": "Sarawak" },
  { "postcode": "96500", "city": "Bintangor", "state": "Sarawak" },
  { "postcode": "96507", "city": "Bintangor", "state": "Sarawak" },
  { "postcode": "96508", "city": "Bintangor", "state": "Sarawak" },
  { "postcode": "96509", "city": "Bintangor", "state": "Sarawak" },
  { "postcode": "96510", "city": "Bintangor", "state": "Sarawak" },
  { "postcode": "96600", "city": "Julau", "state": "Sarawak" },
  { "postcode": "96700", "city": "Kanowit", "state": "Sarawak" },
  { "postcode": "96707", "city": "Kanowit", "state": "Sarawak" },
  { "postcode": "96709", "city": "Kanowit", "state": "Sarawak" },
  { "postcode": "96800", "city": "Kapit", "state": "Sarawak" },
  { "postcode": "96807", "city": "Kapit", "state": "Sarawak" },
  { "postcode": "96809", "city": "Kapit", "state": "Sarawak" },
  { "postcode": "96850", "city": "Song", "state": "Sarawak" },
  { "postcode": "96900", "city": "Belaga", "state": "Sarawak" },
  { "postcode": "96950", "city": "Belaga", "state": "Sarawak" },
  { "postcode": "96999", "city": "Belaga", "state": "Sarawak" }
]
