[
  { "postcode": "98000", "city": "Miri", "state": "Sarawak" },
  { "postcode": "98007", "city": "Miri", "state": "Sarawak" },
  { "postcode": "98008", "city": "Miri", "state": "Sarawak" },
  { "postcode": "98009", "city": "Miri", "state": "Sarawak" },
  { "postcode": "98050", "city": "Baram", "state": "Sarawak" },
  { "postcode": "98057", "city": "Baram", "state": "Sarawak" },
  { "postcode": "98058", "city": "Baram", "state": "Sarawak" },
  { "postcode": "98059", "city": "Baram", "state": "Sarawak" },
  { "postcode": "98070", "city": "Pusat Mel Miri", "state": "Sarawak" },
  { "postcode": "98100", "city": "Lutong", "state": "Sarawak" },
  { "postcode": "98107", "city": "Lutong", "state": "Sarawak" },
  { "postcode": "98109", "city": "Lutong", "state": "Sarawak" },
  { "postcode": "98150", "city": "Bekenu", "state": "Sarawak" },
  { "postcode": "98157", "city": "Bekenu", "state": "Sarawak" },
  { "postcode": "98159", "city": "Bekenu", "state": "Sarawak" },
  { "postcode": "98200", "city": "Niah", "state": "Sarawak" },
  { "postcode": "98300", "city": "Long Lama", "state": "Sarawak" },
  { "postcode": "98700", "city": "Limbang", "state": "Sarawak" },
  { "postcode": "98707", "city": "Limbang", "state": "Sarawak" },
  { "postcode": "98708", "city": "Limbang", "state": "Sarawak" },
  { "postcode": "98709", "city": "Limbang", "state": "Sarawak" },
  { "postcode": "98750", "city": "Nanga Medamit", "state": "Sarawak" },
  { "postcode": "98800", "city": "Sundar", "state": "Sarawak" },
  { "postcode": "98850", "city": "Lawas", "state": "Sarawak" },
  { "postcode": "98857", "city": "Lawas", "state": "Sarawak" },
  { "postcode": "98859", "city": "Lawas", "state": "Sarawak" }
]
